{
"type": "FeatureCollection",
"name": "ne_10m_populated_places",
"crs": { "type": "name", "properties": { "name": "urn:ogc:def:crs:OGC:1.3:CRS84" } },
"features": [
{ "type": "Feature", "properties": { "SCALERANK": 7, "NATSCALE": 20, "LABELRANK": 5, "FEATURECLA": "Populated place", "NAME": "Ayr", "NAMEPAR": null, "NAMEALT": null, "DIFFASCII": 0, "NAMEASCII": "Ayr", "ADM0CAP": 0.0, "CAPIN": null, "WORLDCITY": 0.0, "MEGACITY": 0, "SOV0NAME": "United Kingdom", "SOV_A3": "GBR", "ADM0NAME": "United Kingdom", "ADM0_A3": "GBR", "ADM1NAME": "South Ayrshire", "ISO_A2": "GB", "NOTE": null, "LATITUDE": 55.450399596300002, "LONGITUDE": -4.6166797296200004, "CHANGED": 0.0, "NAMEDIFF": 0, "DIFFNOTE": null, "POP_MAX": 69042, "POP_MIN": 45513, "POP_OTHER": 5254, "RANK_MAX": 8, "RANK_MIN": 7, "GEONAMEID": 2656708.0, "MEGANAME": null, "LS_NAME": "Ayr1", "LS_MATCH": 1, "CHECKME": 0, "MAX_POP10": 69042.0, "MAX_POP20": 69042.0, "MAX_POP50": 0.0, "MAX_POP300": 0.0, "MAX_POP310": 0.0, "MAX_NATSCA": 20.0, "MIN_AREAKM": 27.0, "MAX_AREAKM": 27.0, "MIN_AREAMI": 11.0, "MAX_AREAMI": 11.0, "MIN_PERKM": 42.0, "MAX_PERKM": 42.0, "MIN_PERMI": 26.0, "MAX_PERMI": 26.0, "MIN_BBXMIN": -4.675, "MAX_BBXMIN": -4.675, "MIN_BBXMAX": -4.58333333, "MAX_BBXMAX": -4.58333333, "MIN_BBYMIN": 55.425, "MAX_BBYMIN": 55.425, "MIN_BBYMAX": 55.51666667, "MAX_BBYMAX": 55.51666667, "MEAN_BBXC": -4.61979167, "MEAN_BBYC": 55.46279762, "COMPARE": 0, "GN_ASCII": "Ayr", "FEATURE_CL": "P", "FEATURE_CO": "PPL", "ADMIN1_COD": 0.0, "GN_POP": 45513.0, "ELEVATION": 0.0, "GTOPO30": 32.0, "TIMEZONE": "Europe\/London", "GEONAMESNO": "GeoNames match with ascii name + lat + long whole numbers.", "UN_FID": 0, "UN_ADM0": null, "UN_LAT": 0.0, "UN_LONG": 0.0, "POP1950": 0.0, "POP1955": 0.0, "POP1960": 0.0, "POP1965": 0.0, "POP1970": 0.0, "POP1975": 0.0, "POP1980": 0.0, "POP1985": 0.0, "POP1990": 0.0, "POP1995": 0.0, "POP2000": 0.0, "POP2005": 0.0, "POP2010": 0.0, "POP2015": 0.0, "POP2020": 0.0, "POP2025": 0.0, "POP2050": 0.0, "CITYALT": null, "min_zoom": 6.7, "wikidataid": "Q654216", "wof_id": 101873467, "CAPALT": 0, "name_en": "Ayr", "name_de": "Ayr", "name_es": "Ayr", "name_fr": "Ayr", "name_pt": "Ayr", "name_ru": "Эр", "name_zh": "艾尔", "label": null, "name_ar": "آير", "name_bn": "আয়ির", "name_el": null, "name_hi": null, "name_hu": null, "name_id": null, "name_it": "Ayr", "name_ja": "エア", "name_ko": "에어", "name_nl": "Ayr", "name_pl": "Ayr", "name_sv": "Ayr", "name_tr": null, "name_vi": null, "wdid_score": 4, "ne_id": 1159135041 }, "geometry": { "type": "Point", "coordinates": [ -4.616679729623172, 55.450399596266834 ] } },
{ "type": "Feature", "properties": { "SCALERANK": 7, "NATSCALE": 20, "LABELRANK": 5, "FEATURECLA": "Populated place", "NAME": "Aberdeen", "NAMEPAR": null, "NAMEALT": null, "DIFFASCII": 0, "NAMEASCII": "Aberdeen", "ADM0CAP": 0.0, "CAPIN": null, "WORLDCITY": 0.0, "MEGACITY": 0, "SOV0NAME": "United Kingdom", "SOV_A3": "GBR", "ADM0NAME": "United Kingdom", "ADM0_A3": "GBR", "ADM1NAME": "Aberdeen", "ISO_A2": "GB", "NOTE": null, "LATITUDE": 57.170397968700001, "LONGITUDE": -2.07998702128, "CHANGED": 0.0, "NAMEDIFF": 0, "DIFFNOTE": null, "POP_MAX": 189364, "POP_MIN": 183790, "POP_OTHER": 26041, "RANK_MAX": 9, "RANK_MIN": 9, "GEONAMEID": 2657832.0, "MEGANAME": null, "LS_NAME": "Aberdeen3", "LS_MATCH": 1, "CHECKME": 0, "MAX_POP10": 189364.0, "MAX_POP20": 189364.0, "MAX_POP50": 0.0, "MAX_POP300": 0.0, "MAX_POP310": 0.0, "MAX_NATSCA": 20.0, "MIN_AREAKM": 76.0, "MAX_AREAKM": 76.0, "MIN_AREAMI": 29.0, "MAX_AREAMI": 29.0, "MIN_PERKM": 85.0, "MAX_PERKM": 85.0, "MIN_PERMI": 53.0, "MAX_PERMI": 53.0, "MIN_BBXMIN": -2.225, "MAX_BBXMIN": -2.225, "MIN_BBXMAX": -2.05833333, "MAX_BBXMAX": -2.05833333, "MIN_BBYMIN": 57.09166667, "MAX_BBYMIN": 57.09166667, "MIN_BBYMAX": 57.21666667, "MAX_BBYMAX": 57.21666667, "MEAN_BBXC": -2.13519939, "MEAN_BBYC": 57.15467791, "COMPARE": 0, "GN_ASCII": "Aberdeen", "FEATURE_CL": "P", "FEATURE_CO": "PPL", "ADMIN1_COD": 0.0, "GN_POP": 183790.0, "ELEVATION": 0.0, "GTOPO30": 36.0, "TIMEZONE": "Europe\/London", "GEONAMESNO": "GeoNames match with ascii name + lat + long whole numbers.", "UN_FID": 0, "UN_ADM0": null, "UN_LAT": 0.0, "UN_LONG": 0.0, "POP1950": 0.0, "POP1955": 0.0, "POP1960": 0.0, "POP1965": 0.0, "POP1970": 0.0, "POP1975": 0.0, "POP1980": 0.0, "POP1985": 0.0, "POP1990": 0.0, "POP1995": 0.0, "POP2000": 0.0, "POP2005": 0.0, "POP2010": 0.0, "POP2015": 0.0, "POP2020": 0.0, "POP2025": 0.0, "POP2050": 0.0, "CITYALT": null, "min_zoom": 6.1, "wikidataid": "Q36405", "wof_id": 101750639, "CAPALT": 0, "name_en": "Aberdeen", "name_de": "Aberdeen", "name_es": "Aberdeen", "name_fr": "Aberdeen", "name_pt": "Aberdeen", "name_ru": "Абердин", "name_zh": "阿伯丁", "label": null, "name_ar": "أبردين", "name_bn": "অ্যাবরদিন", "name_el": "Αμπερντήν", "name_hi": "एबरडीन", "name_hu": "Aberdeen", "name_id": "Aberdeen", "name_it": "Aberdeen", "name_ja": "アバディーン", "name_ko": "애버딘", "name_nl": "Aberdeen", "name_pl": "Aberdeen", "name_sv": "Aberdeen", "name_tr": "Aberdeen", "name_vi": "Aberdeen", "wdid_score": 4, "ne_id": 1159135045 }, "geometry": { "type": "Point", "coordinates": [ -2.079987021279692, 57.170397968669647 ] } },
{ "type": "Feature", "properties": { "SCALERANK": 7, "NATSCALE": 20, "LABELRANK": 5, "FEATURECLA": "Populated place", "NAME": "Perth", "NAMEPAR": null, "NAMEALT": null, "DIFFASCII": 0, "NAMEASCII": "Perth", "ADM0CAP": 0.0, "CAPIN": null, "WORLDCITY": 0.0, "MEGACITY": 0, "SOV0NAME": "United Kingdom", "SOV_A3": "GBR", "ADM0NAME": "United Kingdom", "ADM0_A3": "GBR", "ADM1NAME": "Perthshire and Kinross", "ISO_A2": "GB", "NOTE": null, "LATITUDE": 56.4003416129, "LONGITUDE": -3.4699796970699999, "CHANGED": 0.0, "NAMEDIFF": 0, "DIFFNOTE": null, "POP_MAX": 39654, "POP_MIN": 39654, "POP_OTHER": 855538, "RANK_MAX": 7, "RANK_MIN": 7, "GEONAMEID": -1.0, "MEGANAME": null, "LS_NAME": "Perth1", "LS_MATCH": 1, "CHECKME": 0, "MAX_POP10": 39654.0, "MAX_POP20": 39654.0, "MAX_POP50": 0.0, "MAX_POP300": 0.0, "MAX_POP310": 0.0, "MAX_NATSCA": 20.0, "MIN_AREAKM": 22.0, "MAX_AREAKM": 22.0, "MIN_AREAMI": 8.0, "MAX_AREAMI": 8.0, "MIN_PERKM": 26.0, "MAX_PERKM": 26.0, "MIN_PERMI": 16.0, "MAX_PERMI": 16.0, "MIN_BBXMIN": -3.49166667, "MAX_BBXMIN": -3.49166667, "MIN_BBXMAX": -3.40833333, "MAX_BBXMAX": -3.40833333, "MIN_BBYMIN": 56.36666667, "MAX_BBYMIN": 56.36666667, "MIN_BBYMAX": 56.425, "MAX_BBYMAX": 56.425, "MEAN_BBXC": -3.44945652, "MEAN_BBYC": 56.39945652, "COMPARE": 0, "GN_ASCII": null, "FEATURE_CL": null, "FEATURE_CO": null, "ADMIN1_COD": 0.0, "GN_POP": 0.0, "ELEVATION": 0.0, "GTOPO30": 0.0, "TIMEZONE": null, "GEONAMESNO": null, "UN_FID": 0, "UN_ADM0": null, "UN_LAT": 0.0, "UN_LONG": 0.0, "POP1950": 0.0, "POP1955": 0.0, "POP1960": 0.0, "POP1965": 0.0, "POP1970": 0.0, "POP1975": 0.0, "POP1980": 0.0, "POP1985": 0.0, "POP1990": 0.0, "POP1995": 0.0, "POP2000": 0.0, "POP2005": 0.0, "POP2010": 0.0, "POP2015": 0.0, "POP2020": 0.0, "POP2025": 0.0, "POP2050": 0.0, "CITYALT": null, "min_zoom": 6.1, "wikidataid": "Q203000", "wof_id": 1141906969, "CAPALT": 0, "name_en": "Perth", "name_de": "Perth", "name_es": "Perth", "name_fr": "Perth", "name_pt": "Perth", "name_ru": "Перт", "name_zh": "伯斯", "label": null, "name_ar": "بيرث", "name_bn": "পার্থ", "name_el": "Περθ", "name_hi": "पर्थ", "name_hu": "Perth", "name_id": "Perth", "name_it": "Perth", "name_ja": "パース", "name_ko": "퍼스", "name_nl": "Perth", "name_pl": "Perth", "name_sv": "Perth", "name_tr": "Perth", "name_vi": "Perth", "wdid_score": 4, "ne_id": 1159135051 }, "geometry": { "type": "Point", "coordinates": [ -3.469979697066492, 56.400341612872296 ] } },
{ "type": "Feature", "properties": { "SCALERANK": 7, "NATSCALE": 20, "LABELRANK": 5, "FEATURECLA": "Populated place", "NAME": "Dundee", "NAMEPAR": null, "NAMEALT": null, "DIFFASCII": 0, "NAMEASCII": "Dundee", "ADM0CAP": 0.0, "CAPIN": null, "WORLDCITY": 0.0, "MEGACITY": 0, "SOV0NAME": "United Kingdom", "SOV_A3": "GBR", "ADM0NAME": "United Kingdom", "ADM0_A3": "GBR", "ADM1NAME": "Dundee", "ISO_A2": "GB", "NOTE": null, "LATITUDE": 56.470389016799999, "LONGITUDE": -3.00000838359, "CHANGED": 0.0, "NAMEDIFF": 0, "DIFFNOTE": null, "POP_MAX": 151592, "POP_MIN": 150435, "POP_OTHER": 149097, "RANK_MAX": 9, "RANK_MIN": 9, "GEONAMEID": 2650752.0, "MEGANAME": null, "LS_NAME": "Dundee", "LS_MATCH": 1, "CHECKME": 2, "MAX_POP10": 150435.0, "MAX_POP20": 150435.0, "MAX_POP50": 0.0, "MAX_POP300": 0.0, "MAX_POP310": 0.0, "MAX_NATSCA": 20.0, "MIN_AREAKM": 59.0, "MAX_AREAKM": 59.0, "MIN_AREAMI": 23.0, "MAX_AREAMI": 23.0, "MIN_PERKM": 77.0, "MAX_PERKM": 77.0, "MIN_PERMI": 48.0, "MAX_PERMI": 48.0, "MIN_BBXMIN": -3.075, "MAX_BBXMIN": -3.075, "MIN_BBXMAX": -2.8, "MAX_BBXMAX": -2.8, "MIN_BBYMIN": 56.45, "MAX_BBYMIN": 56.45, "MIN_BBYMAX": 56.50833333, "MAX_BBYMAX": 56.50833333, "MEAN_BBXC": -2.95436828, "MEAN_BBYC": 56.47641129, "COMPARE": 0, "GN_ASCII": "Dundee", "FEATURE_CL": "P", "FEATURE_CO": "PPL", "ADMIN1_COD": 0.0, "GN_POP": 151592.0, "ELEVATION": 0.0, "GTOPO30": 76.0, "TIMEZONE": "Europe\/London", "GEONAMESNO": "Geonames ascii name + lat.d + long.d matching.", "UN_FID": 0, "UN_ADM0": null, "UN_LAT": 0.0, "UN_LONG": 0.0, "POP1950": 0.0, "POP1955": 0.0, "POP1960": 0.0, "POP1965": 0.0, "POP1970": 0.0, "POP1975": 0.0, "POP1980": 0.0, "POP1985": 0.0, "POP1990": 0.0, "POP1995": 0.0, "POP2000": 0.0, "POP2005": 0.0, "POP2010": 0.0, "POP2015": 0.0, "POP2020": 0.0, "POP2025": 0.0, "POP2050": 0.0, "CITYALT": null, "min_zoom": 6.7, "wikidataid": "Q123709", "wof_id": 101750641, "CAPALT": 0, "name_en": "Dundee", "name_de": "Dundee", "name_es": "Dundee", "name_fr": "Dundee", "name_pt": "Dundee", "name_ru": "Данди", "name_zh": "邓迪", "label": null, "name_ar": "دندي", "name_bn": "ড্যান্ডি", "name_el": "Ντάντι", "name_hi": "डन्डी नोड", "name_hu": "Dundee", "name_id": "Dundee", "name_it": "Dundee", "name_ja": "ダンディー", "name_ko": "던디", "name_nl": "Dundee", "name_pl": "Dundee", "name_sv": "Dundee", "name_tr": "Dundee", "name_vi": "Dundee", "wdid_score": 4, "ne_id": 1159135055 }, "geometry": { "type": "Point", "coordinates": [ -3.000008383588124, 56.47038901684391 ] } },
{ "type": "Feature", "properties": { "SCALERANK": 7, "NATSCALE": 20, "LABELRANK": 5, "FEATURECLA": "Populated place", "NAME": "Middlesbrough", "NAMEPAR": null, "NAMEALT": null, "DIFFASCII": 0, "NAMEASCII": "Middlesbrough", "ADM0CAP": 0.0, "CAPIN": null, "WORLDCITY": 0.0, "MEGACITY": 0, "SOV0NAME": "United Kingdom", "SOV_A3": "GBR", "ADM0NAME": "United Kingdom", "ADM0_A3": "GBR", "ADM1NAME": "Stockton-on-Tees", "ISO_A2": "GB", "NOTE": null, "LATITUDE": 54.580375182200001, "LONGITUDE": -1.2300130629399999, "CHANGED": 0.0, "NAMEDIFF": 0, "DIFFNOTE": null, "POP_MAX": 416042, "POP_MIN": 142707, "POP_OTHER": 399747, "RANK_MAX": 10, "RANK_MIN": 9, "GEONAMEID": 2642607.0, "MEGANAME": null, "LS_NAME": "Middlesbrough", "LS_MATCH": 1, "CHECKME": 1, "MAX_POP10": 416042.0, "MAX_POP20": 416042.0, "MAX_POP50": 0.0, "MAX_POP300": 0.0, "MAX_POP310": 0.0, "MAX_NATSCA": 20.0, "MIN_AREAKM": 214.0, "MAX_AREAKM": 214.0, "MIN_AREAMI": 83.0, "MAX_AREAMI": 83.0, "MIN_PERKM": 174.0, "MAX_PERKM": 174.0, "MIN_PERMI": 108.0, "MAX_PERMI": 108.0, "MIN_BBXMIN": -1.39166667, "MAX_BBXMIN": -1.39166667, "MIN_BBXMAX": -0.95833333, "MAX_BBXMAX": -0.95833333, "MIN_BBYMIN": 54.48333333, "MAX_BBYMIN": 54.48333333, "MIN_BBYMAX": 54.64166667, "MAX_BBYMAX": 54.64166667, "MEAN_BBXC": -1.21656931, "MEAN_BBYC": 54.5682243, "COMPARE": 0, "GN_ASCII": "Middlesbrough", "FEATURE_CL": "P", "FEATURE_CO": "PPL", "ADMIN1_COD": 0.0, "GN_POP": 142707.0, "ELEVATION": 0.0, "GTOPO30": 32.0, "TIMEZONE": "Europe\/London", "GEONAMESNO": "Geonames ascii name + lat.d + long.d matching.", "UN_FID": 0, "UN_ADM0": null, "UN_LAT": 0.0, "UN_LONG": 0.0, "POP1950": 0.0, "POP1955": 0.0, "POP1960": 0.0, "POP1965": 0.0, "POP1970": 0.0, "POP1975": 0.0, "POP1980": 0.0, "POP1985": 0.0, "POP1990": 0.0, "POP1995": 0.0, "POP2000": 0.0, "POP2005": 0.0, "POP2010": 0.0, "POP2015": 0.0, "POP2020": 0.0, "POP2025": 0.0, "POP2050": 0.0, "CITYALT": null, "min_zoom": 6.1, "wikidataid": "Q171866", "wof_id": 101750599, "CAPALT": 0, "name_en": "Middlesbrough", "name_de": "Middlesbrough", "name_es": "Middlesbrough", "name_fr": "Middlesbrough", "name_pt": "Middlesbrough", "name_ru": "Мидлсбро", "name_zh": "米德爾斯伯勒", "label": null, "name_ar": "ميدلزبرة", "name_bn": "মিডলসব্রো", "name_el": "Μίντλεσμπρο", "name_hi": null, "name_hu": "Middlesbrough", "name_id": "Middlesbrough", "name_it": "Middlesbrough", "name_ja": "ミドルズブラ", "name_ko": "미들즈브러", "name_nl": "Middlesbrough", "name_pl": "Middlesbrough", "name_sv": "Middlesbrough", "name_tr": "Middlesbrough", "name_vi": "Middlesbrough", "wdid_score": 4, "ne_id": 1159135059 }, "geometry": { "type": "Point", "coordinates": [ -1.230013062943044, 54.580375182200953 ] } },
{ "type": "Feature", "properties": { "SCALERANK": 7, "NATSCALE": 20, "LABELRANK": 5, "FEATURECLA": "Populated place", "NAME": "Coventry", "NAMEPAR": null, "NAMEALT": null, "DIFFASCII": 0, "NAMEASCII": "Coventry", "ADM0CAP": 0.0, "CAPIN": null, "WORLDCITY": 0.0, "MEGACITY": 0, "SOV0NAME": "United Kingdom", "SOV_A3": "GBR", "ADM0NAME": "United Kingdom", "ADM0_A3": "GBR", "ADM1NAME": "West Midlands", "ISO_A2": "GB", "NOTE": null, "LATITUDE": 52.4204036653, "LONGITUDE": -1.49999658345, "CHANGED": 0.0, "NAMEDIFF": 0, "DIFFNOTE": null, "POP_MAX": 388271, "POP_MIN": 308313, "POP_OTHER": 365326, "RANK_MAX": 10, "RANK_MIN": 10, "GEONAMEID": 2652221.0, "MEGANAME": null, "LS_NAME": "Coventry", "LS_MATCH": 1, "CHECKME": 1, "MAX_POP10": 388271.0, "MAX_POP20": 388271.0, "MAX_POP50": 0.0, "MAX_POP300": 0.0, "MAX_POP310": 0.0, "MAX_NATSCA": 20.0, "MIN_AREAKM": 167.0, "MAX_AREAKM": 167.0, "MIN_AREAMI": 64.0, "MAX_AREAMI": 64.0, "MIN_PERKM": 156.0, "MAX_PERKM": 156.0, "MIN_PERMI": 97.0, "MAX_PERMI": 97.0, "MIN_BBXMIN": -1.60833333, "MAX_BBXMIN": -1.60833333, "MIN_BBXMAX": -1.40833333, "MAX_BBXMAX": -1.40833333, "MIN_BBYMIN": 52.33333333, "MAX_BBYMIN": 52.33333333, "MIN_BBYMAX": 52.55, "MAX_BBYMAX": 52.55, "MEAN_BBXC": -1.4981204, "MEAN_BBYC": 52.43868297, "COMPARE": 0, "GN_ASCII": "Coventry", "FEATURE_CL": "P", "FEATURE_CO": "PPL", "ADMIN1_COD": 0.0, "GN_POP": 308313.0, "ELEVATION": 0.0, "GTOPO30": 76.0, "TIMEZONE": "Europe\/London", "GEONAMESNO": "Geonames ascii name + lat.d + long.d matching.", "UN_FID": 0, "UN_ADM0": null, "UN_LAT": 0.0, "UN_LONG": 0.0, "POP1950": 0.0, "POP1955": 0.0, "POP1960": 0.0, "POP1965": 0.0, "POP1970": 0.0, "POP1975": 0.0, "POP1980": 0.0, "POP1985": 0.0, "POP1990": 0.0, "POP1995": 0.0, "POP2000": 0.0, "POP2005": 0.0, "POP2010": 0.0, "POP2015": 0.0, "POP2020": 0.0, "POP2025": 0.0, "POP2050": 0.0, "CITYALT": null, "min_zoom": 6.7, "wikidataid": "Q6225", "wof_id": 101750449, "CAPALT": 0, "name_en": "Coventry", "name_de": "Coventry", "name_es": "Coventry", "name_fr": "Coventry", "name_pt": "Coventry", "name_ru": "Ковентри", "name_zh": "考文垂", "label": null, "name_ar": "كوفنتري", "name_bn": "কোভেন্ট্রি", "name_el": "Κόβεντρι", "name_hi": "कोवेन्ट्री", "name_hu": "Coventry", "name_id": "Coventry", "name_it": "Coventry", "name_ja": "コヴェントリー", "name_ko": "코번트리", "name_nl": "Coventry", "name_pl": "Coventry", "name_sv": "Coventry", "name_tr": "Coventry", "name_vi": "Coventry", "wdid_score": 4, "ne_id": 1159135067 }, "geometry": { "type": "Point", "coordinates": [ -1.499996583451832, 52.420403665265269 ] } },
{ "type": "Feature", "properties": { "SCALERANK": 7, "NATSCALE": 20, "LABELRANK": 5, "FEATURECLA": "Populated place", "NAME": "Bath", "NAMEPAR": null, "NAMEALT": null, "DIFFASCII": 0, "NAMEASCII": "Bath", "ADM0CAP": 0.0, "CAPIN": null, "WORLDCITY": 0.0, "MEGACITY": 0, "SOV0NAME": "United Kingdom", "SOV_A3": "GBR", "ADM0NAME": "United Kingdom", "ADM0_A3": "GBR", "ADM1NAME": "Bath and North East Somerset", "ISO_A2": "GB", "NOTE": null, "LATITUDE": 51.383748595299998, "LONGITUDE": -2.3500222182199999, "CHANGED": 0.0, "NAMEDIFF": 0, "DIFFNOTE": null, "POP_MAX": 93238, "POP_MIN": 92120, "POP_OTHER": 91037, "RANK_MAX": 8, "RANK_MIN": 8, "GEONAMEID": 2656173.0, "MEGANAME": null, "LS_NAME": "Bath", "LS_MATCH": 1, "CHECKME": 2, "MAX_POP10": 92120.0, "MAX_POP20": 92120.0, "MAX_POP50": 0.0, "MAX_POP300": 0.0, "MAX_POP310": 0.0, "MAX_NATSCA": 20.0, "MIN_AREAKM": 42.0, "MAX_AREAKM": 42.0, "MIN_AREAMI": 16.0, "MAX_AREAMI": 16.0, "MIN_PERKM": 47.0, "MAX_PERKM": 47.0, "MIN_PERMI": 29.0, "MAX_PERMI": 29.0, "MIN_BBXMIN": -2.425, "MAX_BBXMIN": -2.425, "MIN_BBXMAX": -2.29166667, "MAX_BBXMAX": -2.29166667, "MIN_BBYMIN": 51.35, "MAX_BBYMIN": 51.35, "MIN_BBYMAX": 51.41666667, "MAX_BBYMAX": 51.41666667, "MEAN_BBXC": -2.35918803, "MEAN_BBYC": 51.38461538, "COMPARE": 0, "GN_ASCII": "Bath", "FEATURE_CL": "P", "FEATURE_CO": "PPL", "ADMIN1_COD": 0.0, "GN_POP": 93238.0, "ELEVATION": 0.0, "GTOPO30": 74.0, "TIMEZONE": "Europe\/London", "GEONAMESNO": "Geonames ascii name + lat.d + long.d matching.", "UN_FID": 0, "UN_ADM0": null, "UN_LAT": 0.0, "UN_LONG": 0.0, "POP1950": 0.0, "POP1955": 0.0, "POP1960": 0.0, "POP1965": 0.0, "POP1970": 0.0, "POP1975": 0.0, "POP1980": 0.0, "POP1985": 0.0, "POP1990": 0.0, "POP1995": 0.0, "POP2000": 0.0, "POP2005": 0.0, "POP2010": 0.0, "POP2015": 0.0, "POP2020": 0.0, "POP2025": 0.0, "POP2050": 0.0, "CITYALT": null, "min_zoom": 6.1, "wikidataid": "Q22889", "wof_id": 101750387, "CAPALT": 0, "name_en": "Bath", "name_de": "Bath", "name_es": "Bath", "name_fr": "Bath", "name_pt": "Bath", "name_ru": "Бат", "name_zh": "巴斯", "label": null, "name_ar": "باث", "name_bn": "বাথ", "name_el": "Μπαθ", "name_hi": "बाथ", "name_hu": "Bath", "name_id": "Bath", "name_it": "Bath", "name_ja": "バース", "name_ko": "바스", "name_nl": "Bath", "name_pl": "Bath", "name_sv": "Bath", "name_tr": "Bath", "name_vi": "Bath", "wdid_score": 4, "ne_id": 1159135071 }, "geometry": { "type": "Point", "coordinates": [ -2.350022218220886, 51.383748595274085 ] } },
{ "type": "Feature", "properties": { "SCALERANK": 7, "NATSCALE": 20, "LABELRANK": 5, "FEATURECLA": "Populated place", "NAME": "Exeter", "NAMEPAR": null, "NAMEALT": null, "DIFFASCII": 0, "NAMEASCII": "Exeter", "ADM0CAP": 0.0, "CAPIN": null, "WORLDCITY": 0.0, "MEGACITY": 0, "SOV0NAME": "United Kingdom", "SOV_A3": "GBR", "ADM0NAME": "United Kingdom", "ADM0_A3": "GBR", "ADM1NAME": "Devon", "ISO_A2": "GB", "NOTE": null, "LATITUDE": 50.700405292900001, "LONGITUDE": -3.5299501967400002, "CHANGED": 0.0, "NAMEDIFF": 0, "DIFFNOTE": null, "POP_MAX": 113118, "POP_MIN": 103366, "POP_OTHER": 93512, "RANK_MAX": 9, "RANK_MIN": 9, "GEONAMEID": 2649808.0, "MEGANAME": null, "LS_NAME": "Exeter", "LS_MATCH": 1, "CHECKME": 0, "MAX_POP10": 103366.0, "MAX_POP20": 103366.0, "MAX_POP50": 0.0, "MAX_POP300": 0.0, "MAX_POP310": 0.0, "MAX_NATSCA": 20.0, "MIN_AREAKM": 50.0, "MAX_AREAKM": 50.0, "MIN_AREAMI": 19.0, "MAX_AREAMI": 19.0, "MIN_PERKM": 48.0, "MAX_PERKM": 48.0, "MIN_PERMI": 30.0, "MAX_PERMI": 30.0, "MIN_BBXMIN": -3.56666667, "MAX_BBXMIN": -3.56666667, "MIN_BBXMAX": -3.45, "MAX_BBXMAX": -3.45, "MIN_BBYMIN": 50.675, "MAX_BBYMIN": 50.675, "MIN_BBYMAX": 50.75, "MAX_BBYMAX": 50.75, "MEAN_BBXC": -3.5081044, "MEAN_BBYC": 50.71854396, "COMPARE": 0, "GN_ASCII": "Exeter", "FEATURE_CL": "P", "FEATURE_CO": "PPL", "ADMIN1_COD": 0.0, "GN_POP": 113118.0, "ELEVATION": 0.0, "GTOPO30": 43.0, "TIMEZONE": "Europe\/London", "GEONAMESNO": "Geonames ascii name + lat.d + long.d matching.", "UN_FID": 0, "UN_ADM0": null, "UN_LAT": 0.0, "UN_LONG": 0.0, "POP1950": 0.0, "POP1955": 0.0, "POP1960": 0.0, "POP1965": 0.0, "POP1970": 0.0, "POP1975": 0.0, "POP1980": 0.0, "POP1985": 0.0, "POP1990": 0.0, "POP1995": 0.0, "POP2000": 0.0, "POP2005": 0.0, "POP2010": 0.0, "POP2015": 0.0, "POP2020": 0.0, "POP2025": 0.0, "POP2050": 0.0, "CITYALT": null, "min_zoom": 5.1, "wikidataid": "Q134672", "wof_id": 101750383, "CAPALT": 0, "name_en": "Exeter", "name_de": "Exeter", "name_es": "Exeter", "name_fr": "Exeter", "name_pt": "Exeter", "name_ru": "Эксетер", "name_zh": "埃克塞特", "label": null, "name_ar": "إكسيتر", "name_bn": "এক্সেটার", "name_el": "Έξετερ", "name_hi": "एक्सेर", "name_hu": "Exeter", "name_id": "Exeter", "name_it": "Exeter", "name_ja": "エクセター", "name_ko": "엑서터", "name_nl": "Exeter", "name_pl": "Exeter", "name_sv": "Exeter", "name_tr": "Exeter", "name_vi": "Exeter", "wdid_score": 4, "ne_id": 1159135075 }, "geometry": { "type": "Point", "coordinates": [ -3.529950196741254, 50.700405292862456 ] } },
{ "type": "Feature", "properties": { "SCALERANK": 7, "NATSCALE": 20, "LABELRANK": 5, "FEATURECLA": "Populated place", "NAME": "Cambridge", "NAMEPAR": null, "NAMEALT": null, "DIFFASCII": 0, "NAMEASCII": "Cambridge", "ADM0CAP": 0.0, "CAPIN": null, "WORLDCITY": 0.0, "MEGACITY": 0, "SOV0NAME": "United Kingdom", "SOV_A3": "GBR", "ADM0NAME": "United Kingdom", "ADM0_A3": "GBR", "ADM1NAME": "Cambridgeshire", "ISO_A2": "GB", "NOTE": null, "LATITUDE": 52.200391254800003, "LONGITUDE": 0.11662308615, "CHANGED": 1.0, "NAMEDIFF": 1, "DIFFNOTE": "Added place. Population from GeoNames.", "POP_MAX": 128488, "POP_MIN": 128488, "POP_OTHER": 0, "RANK_MAX": 9, "RANK_MIN": 9, "GEONAMEID": 2653941.0, "MEGANAME": null, "LS_NAME": null, "LS_MATCH": 2, "CHECKME": 0, "MAX_POP10": 0.0, "MAX_POP20": 0.0, "MAX_POP50": 0.0, "MAX_POP300": 0.0, "MAX_POP310": 0.0, "MAX_NATSCA": 0.0, "MIN_AREAKM": 0.0, "MAX_AREAKM": 0.0, "MIN_AREAMI": 0.0, "MAX_AREAMI": 0.0, "MIN_PERKM": 0.0, "MAX_PERKM": 0.0, "MIN_PERMI": 0.0, "MAX_PERMI": 0.0, "MIN_BBXMIN": 0.0, "MAX_BBXMIN": 0.0, "MIN_BBXMAX": 0.0, "MAX_BBXMAX": 0.0, "MIN_BBYMIN": 0.0, "MAX_BBYMIN": 0.0, "MIN_BBYMAX": 0.0, "MAX_BBYMAX": 0.0, "MEAN_BBXC": 0.0, "MEAN_BBYC": 0.0, "COMPARE": 1, "GN_ASCII": "Cambridge", "FEATURE_CL": "P", "FEATURE_CO": "PPL", "ADMIN1_COD": 0.0, "GN_POP": 128488.0, "ELEVATION": 0.0, "GTOPO30": 38.0, "TIMEZONE": "Europe\/London", "GEONAMESNO": "Geonames ascii name + lat.d + long.d matching.", "UN_FID": 0, "UN_ADM0": null, "UN_LAT": 0.0, "UN_LONG": 0.0, "POP1950": 0.0, "POP1955": 0.0, "POP1960": 0.0, "POP1965": 0.0, "POP1970": 0.0, "POP1975": 0.0, "POP1980": 0.0, "POP1985": 0.0, "POP1990": 0.0, "POP1995": 0.0, "POP2000": 0.0, "POP2005": 0.0, "POP2010": 0.0, "POP2015": 0.0, "POP2020": 0.0, "POP2025": 0.0, "POP2050": 0.0, "CITYALT": null, "min_zoom": 6.1, "wikidataid": "Q350", "wof_id": 101750465, "CAPALT": 0, "name_en": "Cambridge", "name_de": "Cambridge", "name_es": "Cambridge", "name_fr": "Cambridge", "name_pt": "Cambridge", "name_ru": "Кембридж", "name_zh": "劍橋", "label": null, "name_ar": "كامبريدج", "name_bn": "ক্যামব্রিজ", "name_el": "Κέιμπριτζ", "name_hi": "कैम्ब्रिज", "name_hu": "Cambridge", "name_id": "Cambridge", "name_it": "Cambridge", "name_ja": "ケンブリッジ", "name_ko": "케임브리지", "name_nl": "Cambridge", "name_pl": "Cambridge", "name_sv": "Cambridge", "name_tr": "Cambridge", "name_vi": "Cambridge", "wdid_score": 4, "ne_id": 1159135079 }, "geometry": { "type": "Point", "coordinates": [ 0.11662308615098, 52.20039125478246 ] } },
{ "type": "Feature", "properties": { "SCALERANK": 7, "NATSCALE": 20, "LABELRANK": 5, "FEATURECLA": "Populated place", "NAME": "Kingston upon Hull", "NAMEPAR": null, "NAMEALT": null, "DIFFASCII": 0, "NAMEASCII": "Kingston upon Hull", "ADM0CAP": 0.0, "CAPIN": null, "WORLDCITY": 0.0, "MEGACITY": 0, "SOV0NAME": "United Kingdom", "SOV_A3": "GBR", "ADM0NAME": "United Kingdom", "ADM0_A3": "GBR", "ADM1NAME": "Kingston upon Hull", "ISO_A2": "GB", "NOTE": null, "LATITUDE": 53.750425841400002, "LONGITUDE": -0.32999047993000002, "CHANGED": 0.0, "NAMEDIFF": 0, "DIFFNOTE": null, "POP_MAX": 302296, "POP_MIN": 292501, "POP_OTHER": 280237, "RANK_MAX": 10, "RANK_MIN": 10, "GEONAMEID": 2645425.0, "MEGANAME": null, "LS_NAME": "Kingston upon Hull", "LS_MATCH": 1, "CHECKME": 2, "MAX_POP10": 292501.0, "MAX_POP20": 292501.0, "MAX_POP50": 0.0, "MAX_POP300": 0.0, "MAX_POP310": 0.0, "MAX_NATSCA": 20.0, "MIN_AREAKM": 120.0, "MAX_AREAKM": 120.0, "MIN_AREAMI": 46.0, "MAX_AREAMI": 46.0, "MIN_PERKM": 121.0, "MAX_PERKM": 121.0, "MIN_PERMI": 75.0, "MAX_PERMI": 75.0, "MIN_BBXMIN": -0.51666667, "MAX_BBXMIN": -0.51666667, "MIN_BBXMAX": -0.21666667, "MAX_BBXMAX": -0.21666667, "MIN_BBYMIN": 53.70833333, "MAX_BBYMIN": 53.70833333, "MIN_BBYMAX": 53.825, "MAX_BBYMAX": 53.825, "MEAN_BBXC": -0.36377119, "MEAN_BBYC": 53.76267655, "COMPARE": 0, "GN_ASCII": "Kingston upon Hull", "FEATURE_CL": "P", "FEATURE_CO": "PPL", "ADMIN1_COD": 0.0, "GN_POP": 302296.0, "ELEVATION": 0.0, "GTOPO30": 1.0, "TIMEZONE": "Europe\/London", "GEONAMESNO": "GeoNames match with ascii name + lat + long whole numbers.", "UN_FID": 0, "UN_ADM0": null, "UN_LAT": 0.0, "UN_LONG": 0.0, "POP1950": 0.0, "POP1955": 0.0, "POP1960": 0.0, "POP1965": 0.0, "POP1970": 0.0, "POP1975": 0.0, "POP1980": 0.0, "POP1985": 0.0, "POP1990": 0.0, "POP1995": 0.0, "POP2000": 0.0, "POP2005": 0.0, "POP2010": 0.0, "POP2015": 0.0, "POP2020": 0.0, "POP2025": 0.0, "POP2050": 0.0, "CITYALT": null, "min_zoom": 6.1, "wikidataid": "Q128147", "wof_id": 101750561, "CAPALT": 0, "name_en": "Kingston upon Hull", "name_de": "Kingston upon Hull", "name_es": "Kingston upon Hull", "name_fr": "Kingston-upon-Hull", "name_pt": "Kingston upon Hull", "name_ru": "Кингстон-апон-Халл", "name_zh": "赫爾河畔京士頓", "label": null, "name_ar": "كينغستون أبون هال", "name_bn": "কিংস্টন আপন হাল", "name_el": "Κίνγκστον απόν Χαλ", "name_hi": "किंग्स्टन अपॉन हुल", "name_hu": "Kingston upon Hull", "name_id": "Kingston upon Hull", "name_it": "Kingston upon Hull", "name_ja": "キングストン・アポン・ハル", "name_ko": "킹스턴어폰헐", "name_nl": "Kingston upon Hull", "name_pl": "Kingston upon Hull", "name_sv": "Kingston upon Hull", "name_tr": "Kingston upon Hull", "name_vi": "Kingston trên sông Hull", "wdid_score": 4, "ne_id": 1159135085 }, "geometry": { "type": "Point", "coordinates": [ -0.329990479931553, 53.750425841377364 ] } },
{ "type": "Feature", "properties": { "SCALERANK": 7, "NATSCALE": 20, "LABELRANK": 5, "FEATURECLA": "Populated place", "NAME": "Londonderry", "NAMEPAR": null, "NAMEALT": null, "DIFFASCII": 0, "NAMEASCII": "Londonderry", "ADM0CAP": 0.0, "CAPIN": null, "WORLDCITY": 0.0, "MEGACITY": 0, "SOV0NAME": "United Kingdom", "SOV_A3": "GBR", "ADM0NAME": "United Kingdom", "ADM0_A3": "GBR", "ADM1NAME": "Derry", "ISO_A2": "GB", "NOTE": null, "LATITUDE": 55.000375385700004, "LONGITUDE": -7.33328393699, "CHANGED": 0.0, "NAMEDIFF": 0, "DIFFNOTE": null, "POP_MAX": 83652, "POP_MIN": 81618, "POP_OTHER": 78886, "RANK_MAX": 8, "RANK_MIN": 8, "GEONAMEID": 2643736.0, "MEGANAME": null, "LS_NAME": "Londonderry", "LS_MATCH": 1, "CHECKME": 0, "MAX_POP10": 81618.0, "MAX_POP20": 81618.0, "MAX_POP50": 0.0, "MAX_POP300": 0.0, "MAX_POP310": 0.0, "MAX_NATSCA": 20.0, "MIN_AREAKM": 36.0, "MAX_AREAKM": 36.0, "MIN_AREAMI": 14.0, "MAX_AREAMI": 14.0, "MIN_PERKM": 44.0, "MAX_PERKM": 44.0, "MIN_PERMI": 28.0, "MAX_PERMI": 28.0, "MIN_BBXMIN": -7.36666667, "MAX_BBXMIN": -7.36666667, "MIN_BBXMAX": -7.26666667, "MAX_BBXMAX": -7.26666667, "MIN_BBYMIN": 54.975, "MAX_BBYMIN": 54.975, "MIN_BBYMAX": 55.04166667, "MAX_BBYMAX": 55.04166667, "MEAN_BBXC": -7.31866438, "MEAN_BBYC": 55.00610731, "COMPARE": 0, "GN_ASCII": "Derry", "FEATURE_CL": "P", "FEATURE_CO": "PPL", "ADMIN1_COD": 0.0, "GN_POP": 83652.0, "ELEVATION": 0.0, "GTOPO30": 28.0, "TIMEZONE": "Europe\/London", "GEONAMESNO": "GeoNames spatial join with similar names only.", "UN_FID": 0, "UN_ADM0": null, "UN_LAT": 0.0, "UN_LONG": 0.0, "POP1950": 0.0, "POP1955": 0.0, "POP1960": 0.0, "POP1965": 0.0, "POP1970": 0.0, "POP1975": 0.0, "POP1980": 0.0, "POP1985": 0.0, "POP1990": 0.0, "POP1995": 0.0, "POP2000": 0.0, "POP2005": 0.0, "POP2010": 0.0, "POP2015": 0.0, "POP2020": 0.0, "POP2025": 0.0, "POP2050": 0.0, "CITYALT": null, "min_zoom": 6.1, "wikidataid": "Q163584", "wof_id": 101751941, "CAPALT": 0, "name_en": "Derry", "name_de": "Londonderry", "name_es": "Londonderry", "name_fr": "Derry", "name_pt": "Derry", "name_ru": "Дерри", "name_zh": "德里", "label": null, "name_ar": "ديري", "name_bn": "ডেরি", "name_el": "Λόντοντερι", "name_hi": "लोंदेंडरी \/ डेरी", "name_hu": "Londonderry", "name_id": "Derry", "name_it": "Derry", "name_ja": "ロンドンデリー", "name_ko": "데리", "name_nl": "Derry", "name_pl": "Derry", "name_sv": "Londonderry", "name_tr": "Derry", "name_vi": "Derry", "wdid_score": 4, "ne_id": 1159135089 }, "geometry": { "type": "Point", "coordinates": [ -7.333283936990824, 55.000375385653228 ] } },
{ "type": "Feature", "properties": { "SCALERANK": 7, "NATSCALE": 20, "LABELRANK": 5, "FEATURECLA": "Populated place", "NAME": "Lisburn", "NAMEPAR": null, "NAMEALT": null, "DIFFASCII": 0, "NAMEASCII": "Lisburn", "ADM0CAP": 0.0, "CAPIN": null, "WORLDCITY": 0.0, "MEGACITY": 0, "SOV0NAME": "United Kingdom", "SOV_A3": "GBR", "ADM0NAME": "United Kingdom", "ADM0_A3": "GBR", "ADM1NAME": "Dungannon", "ISO_A2": "GB", "NOTE": null, "LATITUDE": 54.520378844299998, "LONGITUDE": -6.6700169285199999, "CHANGED": 0.0, "NAMEDIFF": 0, "DIFFNOTE": null, "POP_MAX": 12899, "POP_MIN": 12899, "POP_OTHER": 0, "RANK_MAX": 6, "RANK_MIN": 6, "GEONAMEID": -1.0, "MEGANAME": null, "LS_NAME": "Lisburn", "LS_MATCH": 1, "CHECKME": 2, "MAX_POP10": 12899.0, "MAX_POP20": 0.0, "MAX_POP50": 0.0, "MAX_POP300": 0.0, "MAX_POP310": 0.0, "MAX_NATSCA": 10.0, "MIN_AREAKM": 13.0, "MAX_AREAKM": 13.0, "MIN_AREAMI": 5.0, "MAX_AREAMI": 5.0, "MIN_PERKM": 26.0, "MAX_PERKM": 26.0, "MIN_PERMI": 16.0, "MAX_PERMI": 16.0, "MIN_BBXMIN": -6.79166667, "MAX_BBXMIN": -6.79166667, "MIN_BBXMAX": -6.69166667, "MAX_BBXMAX": -6.69166667, "MIN_BBYMIN": 54.47542937, "MAX_BBYMIN": 54.47542937, "MIN_BBYMAX": 54.55042937, "MAX_BBYMAX": 54.55042937, "MEAN_BBXC": -6.7505, "MEAN_BBYC": 54.51326271, "COMPARE": 0, "GN_ASCII": null, "FEATURE_CL": null, "FEATURE_CO": null, "ADMIN1_COD": 0.0, "GN_POP": 0.0, "ELEVATION": 0.0, "GTOPO30": 0.0, "TIMEZONE": null, "GEONAMESNO": null, "UN_FID": 0, "UN_ADM0": null, "UN_LAT": 0.0, "UN_LONG": 0.0, "POP1950": 0.0, "POP1955": 0.0, "POP1960": 0.0, "POP1965": 0.0, "POP1970": 0.0, "POP1975": 0.0, "POP1980": 0.0, "POP1985": 0.0, "POP1990": 0.0, "POP1995": 0.0, "POP2000": 0.0, "POP2005": 0.0, "POP2010": 0.0, "POP2015": 0.0, "POP2020": 0.0, "POP2025": 0.0, "POP2050": 0.0, "CITYALT": null, "min_zoom": 6.7, "wikidataid": "Q1828035", "wof_id": 1141906971, "CAPALT": 0, "name_en": "Lisburn", "name_de": "Lisburn", "name_es": "Lisburn", "name_fr": "Lisburn", "name_pt": "Lisburn", "name_ru": "Лисберн", "name_zh": "利斯本", "label": null, "name_ar": "ليسبورن", "name_bn": "লিসবার্ন", "name_el": "Λίσμπερν", "name_hi": null, "name_hu": "Lisburn", "name_id": null, "name_it": "Lisburn", "name_ja": "リスバーン", "name_ko": "리즈번", "name_nl": "Lisburn", "name_pl": "Lisburn", "name_sv": "Lisburn", "name_tr": "Lisburn", "name_vi": "Lisburn", "wdid_score": 4, "ne_id": 1159135093 }, "geometry": { "type": "Point", "coordinates": [ -6.670016928524603, 54.52037884431013 ] } },
{ "type": "Feature", "properties": { "SCALERANK": 7, "NATSCALE": 20, "LABELRANK": 5, "FEATURECLA": "Populated place", "NAME": "Penzance", "NAMEPAR": null, "NAMEALT": null, "DIFFASCII": 0, "NAMEASCII": "Penzance", "ADM0CAP": 0.0, "CAPIN": null, "WORLDCITY": 0.0, "MEGACITY": 0, "SOV0NAME": "United Kingdom", "SOV_A3": "GBR", "ADM0NAME": "United Kingdom", "ADM0_A3": "GBR", "ADM1NAME": "Cornwall", "ISO_A2": "GB", "NOTE": null, "LATITUDE": 50.133721536300001, "LONGITUDE": -5.55003361146, "CHANGED": 0.0, "NAMEDIFF": 0, "DIFFNOTE": null, "POP_MAX": 20812, "POP_MIN": 15489, "POP_OTHER": 15072, "RANK_MAX": 7, "RANK_MIN": 6, "GEONAMEID": 2640377.0, "MEGANAME": null, "LS_NAME": "Penzance", "LS_MATCH": 1, "CHECKME": 0, "MAX_POP10": 15489.0, "MAX_POP20": 15489.0, "MAX_POP50": 0.0, "MAX_POP300": 0.0, "MAX_POP310": 0.0, "MAX_NATSCA": 20.0, "MIN_AREAKM": 14.0, "MAX_AREAKM": 14.0, "MIN_AREAMI": 5.0, "MAX_AREAMI": 5.0, "MIN_PERKM": 29.0, "MAX_PERKM": 29.0, "MIN_PERMI": 18.0, "MAX_PERMI": 18.0, "MIN_BBXMIN": -5.56666667, "MAX_BBXMIN": -5.56666667, "MIN_BBXMAX": -5.475, "MAX_BBXMAX": -5.475, "MIN_BBYMIN": 50.09166667, "MAX_BBYMIN": 50.09166667, "MIN_BBYMAX": 50.14166667, "MAX_BBYMAX": 50.14166667, "MEAN_BBXC": -5.53383333, "MEAN_BBYC": 50.12083333, "COMPARE": 0, "GN_ASCII": "Penzance", "FEATURE_CL": "P", "FEATURE_CO": "PPL", "ADMIN1_COD": 0.0, "GN_POP": 20812.0, "ELEVATION": 0.0, "GTOPO30": 1.0, "TIMEZONE": "Europe\/London", "GEONAMESNO": "GeoNames match with ascii name + lat + long whole numbers.", "UN_FID": 0, "UN_ADM0": null, "UN_LAT": 0.0, "UN_LONG": 0.0, "POP1950": 0.0, "POP1955": 0.0, "POP1960": 0.0, "POP1965": 0.0, "POP1970": 0.0, "POP1975": 0.0, "POP1980": 0.0, "POP1985": 0.0, "POP1990": 0.0, "POP1995": 0.0, "POP2000": 0.0, "POP2005": 0.0, "POP2010": 0.0, "POP2015": 0.0, "POP2020": 0.0, "POP2025": 0.0, "POP2050": 0.0, "CITYALT": null, "min_zoom": 6.1, "wikidataid": "Q208209", "wof_id": 1141906973, "CAPALT": 0, "name_en": "Penzance", "name_de": "Penzance", "name_es": "Penzance", "name_fr": "Penzance", "name_pt": "Penzance", "name_ru": "Пензанс", "name_zh": "彭赞斯", "label": null, "name_ar": "بينزانس", "name_bn": "পেঞ্জান্সে", "name_el": "Πενζάνς", "name_hi": null, "name_hu": null, "name_id": null, "name_it": "Penzance", "name_ja": "ペンザンス", "name_ko": "펜잰스", "name_nl": "Penzance", "name_pl": "Penzance", "name_sv": "Penzance", "name_tr": null, "name_vi": null, "wdid_score": 4, "ne_id": 1159135097 }, "geometry": { "type": "Point", "coordinates": [ -5.550033611462879, 50.13372153634981 ] } },
{ "type": "Feature", "properties": { "SCALERANK": 7, "NATSCALE": 20, "LABELRANK": 5, "FEATURECLA": "Populated place", "NAME": "York", "NAMEPAR": null, "NAMEALT": null, "DIFFASCII": 0, "NAMEASCII": "York", "ADM0CAP": 0.0, "CAPIN": null, "WORLDCITY": 0.0, "MEGACITY": 0, "SOV0NAME": "United Kingdom", "SOV_A3": "GBR", "ADM0NAME": "United Kingdom", "ADM0_A3": "GBR", "ADM1NAME": "York", "ISO_A2": "GB", "NOTE": null, "LATITUDE": 53.970386575399999, "LONGITUDE": -1.0800222182200001, "CHANGED": 0.0, "NAMEDIFF": 0, "DIFFNOTE": null, "POP_MAX": 158947, "POP_MIN": 144202, "POP_OTHER": 214418, "RANK_MAX": 9, "RANK_MIN": 9, "GEONAMEID": 2633352.0, "MEGANAME": null, "LS_NAME": "York2", "LS_MATCH": 1, "CHECKME": 0, "MAX_POP10": 158947.0, "MAX_POP20": 158947.0, "MAX_POP50": 0.0, "MAX_POP300": 0.0, "MAX_POP310": 0.0, "MAX_NATSCA": 20.0, "MIN_AREAKM": 64.0, "MAX_AREAKM": 64.0, "MIN_AREAMI": 25.0, "MAX_AREAMI": 25.0, "MIN_PERKM": 70.0, "MAX_PERKM": 70.0, "MIN_PERMI": 43.0, "MAX_PERMI": 43.0, "MIN_BBXMIN": -1.15833333, "MAX_BBXMIN": -1.15833333, "MIN_BBXMAX": -1.025, "MAX_BBXMAX": -1.025, "MIN_BBYMIN": 53.90833333, "MAX_BBYMIN": 53.90833333, "MIN_BBYMAX": 54.025, "MAX_BBYMAX": 54.025, "MEAN_BBXC": -1.09019029, "MEAN_BBYC": 53.96978346, "COMPARE": 0, "GN_ASCII": "York", "FEATURE_CL": "P", "FEATURE_CO": "PPL", "ADMIN1_COD": 0.0, "GN_POP": 144202.0, "ELEVATION": 0.0, "GTOPO30": 14.0, "TIMEZONE": "Europe\/London", "GEONAMESNO": "Geonames ascii name + lat.d + long.d matching.", "UN_FID": 0, "UN_ADM0": null, "UN_LAT": 0.0, "UN_LONG": 0.0, "POP1950": 0.0, "POP1955": 0.0, "POP1960": 0.0, "POP1965": 0.0, "POP1970": 0.0, "POP1975": 0.0, "POP1980": 0.0, "POP1985": 0.0, "POP1990": 0.0, "POP1995": 0.0, "POP2000": 0.0, "POP2005": 0.0, "POP2010": 0.0, "POP2015": 0.0, "POP2020": 0.0, "POP2025": 0.0, "POP2050": 0.0, "CITYALT": null, "min_zoom": 6.7, "wikidataid": "Q42462", "wof_id": 101751641, "CAPALT": 0, "name_en": "York", "name_de": "York", "name_es": "York", "name_fr": "York", "name_pt": "Iorque", "name_ru": "Йорк", "name_zh": "約克", "label": null, "name_ar": "يورك", "name_bn": "ইয়র্ক", "name_el": "Γιορκ", "name_hi": "यॉर्क", "name_hu": "York", "name_id": "York", "name_it": "York", "name_ja": "ヨーク", "name_ko": "요크", "name_nl": "York", "name_pl": "York", "name_sv": "York", "name_tr": "York", "name_vi": "York", "wdid_score": 4, "ne_id": 1159135103 }, "geometry": { "type": "Point", "coordinates": [ -1.080022218215845, 53.970386575427597 ] } },
{ "type": "Feature", "properties": { "SCALERANK": 7, "NATSCALE": 20, "LABELRANK": 5, "FEATURECLA": "Populated place", "NAME": "Blackpool", "NAMEPAR": null, "NAMEALT": null, "DIFFASCII": 0, "NAMEASCII": "Blackpool", "ADM0CAP": 0.0, "CAPIN": null, "WORLDCITY": 0.0, "MEGACITY": 0, "SOV0NAME": "United Kingdom", "SOV_A3": "GBR", "ADM0NAME": "United Kingdom", "ADM0_A3": "GBR", "ADM1NAME": "Lancashire", "ISO_A2": "GB", "NOTE": null, "LATITUDE": 53.830395120299997, "LONGITUDE": -3.05000533183, "CHANGED": 0.0, "NAMEDIFF": 0, "DIFFNOTE": null, "POP_MAX": 272792, "POP_MIN": 143101, "POP_OTHER": 245350, "RANK_MAX": 10, "RANK_MIN": 9, "GEONAMEID": 2655459.0, "MEGANAME": null, "LS_NAME": "Blackpool", "LS_MATCH": 1, "CHECKME": 0, "MAX_POP10": 272792.0, "MAX_POP20": 272792.0, "MAX_POP50": 0.0, "MAX_POP300": 0.0, "MAX_POP310": 0.0, "MAX_NATSCA": 20.0, "MIN_AREAKM": 94.0, "MAX_AREAKM": 94.0, "MIN_AREAMI": 36.0, "MAX_AREAMI": 36.0, "MIN_PERKM": 95.0, "MAX_PERKM": 95.0, "MIN_PERMI": 59.0, "MAX_PERMI": 59.0, "MIN_BBXMIN": -3.05833333, "MAX_BBXMIN": -3.05833333, "MIN_BBXMAX": -2.93333333, "MAX_BBXMAX": -2.93333333, "MIN_BBYMIN": 53.73333333, "MAX_BBYMIN": 53.73333333, "MIN_BBYMAX": 53.93333333, "MAX_BBYMAX": 53.93333333, "MEAN_BBXC": -3.01354167, "MEAN_BBYC": 53.82866848, "COMPARE": 0, "GN_ASCII": "Blackpool", "FEATURE_CL": "P", "FEATURE_CO": "PPL", "ADMIN1_COD": 0.0, "GN_POP": 143101.0, "ELEVATION": 0.0, "GTOPO30": 1.0, "TIMEZONE": "Europe\/London", "GEONAMESNO": "GeoNames match with ascii name + lat + long whole numbers.", "UN_FID": 0, "UN_ADM0": null, "UN_LAT": 0.0, "UN_LONG": 0.0, "POP1950": 0.0, "POP1955": 0.0, "POP1960": 0.0, "POP1965": 0.0, "POP1970": 0.0, "POP1975": 0.0, "POP1980": 0.0, "POP1985": 0.0, "POP1990": 0.0, "POP1995": 0.0, "POP2000": 0.0, "POP2005": 0.0, "POP2010": 0.0, "POP2015": 0.0, "POP2020": 0.0, "POP2025": 0.0, "POP2050": 0.0, "CITYALT": null, "min_zoom": 6.7, "wikidataid": "Q170377", "wof_id": 101750583, "CAPALT": 0, "name_en": "Blackpool", "name_de": "Blackpool", "name_es": "Blackpool", "name_fr": "Blackpool", "name_pt": "Blackpool", "name_ru": "Блэкпул", "name_zh": "黑潭", "label": null, "name_ar": "بلاكبول", "name_bn": "ব্ল্যাকপুল", "name_el": "Μπλάκπουλ", "name_hi": null, "name_hu": "Blackpool", "name_id": "Blackpool", "name_it": "Blackpool", "name_ja": "ブラックプール", "name_ko": "블랙풀", "name_nl": "Blackpool", "name_pl": "Blackpool", "name_sv": "Blackpool", "name_tr": "Blackpool", "name_vi": "Blackpool", "wdid_score": 4, "ne_id": 1159135107 }, "geometry": { "type": "Point", "coordinates": [ -3.050005331830505, 53.830395120348953 ] } },
{ "type": "Feature", "properties": { "SCALERANK": 7, "NATSCALE": 20, "LABELRANK": 5, "FEATURECLA": "Populated place", "NAME": "Dumfries", "NAMEPAR": null, "NAMEALT": null, "DIFFASCII": 0, "NAMEASCII": "Dumfries", "ADM0CAP": 0.0, "CAPIN": null, "WORLDCITY": 0.0, "MEGACITY": 0, "SOV0NAME": "United Kingdom", "SOV_A3": "GBR", "ADM0NAME": "United Kingdom", "ADM0_A3": "GBR", "ADM1NAME": "Dumfries and Galloway", "ISO_A2": "GB", "NOTE": null, "LATITUDE": 55.067089659700002, "LONGITUDE": -3.5500006524700001, "CHANGED": 0.0, "NAMEDIFF": 0, "DIFFNOTE": null, "POP_MAX": 31044, "POP_MIN": 31044, "POP_OTHER": 0, "RANK_MAX": 7, "RANK_MIN": 7, "GEONAMEID": 2650798.0, "MEGANAME": null, "LS_NAME": "Dumfries", "LS_MATCH": 1, "CHECKME": 0, "MAX_POP10": 31044.0, "MAX_POP20": 31044.0, "MAX_POP50": 0.0, "MAX_POP300": 0.0, "MAX_POP310": 0.0, "MAX_NATSCA": 20.0, "MIN_AREAKM": 23.0, "MAX_AREAKM": 23.0, "MIN_AREAMI": 9.0, "MAX_AREAMI": 9.0, "MIN_PERKM": 40.0, "MAX_PERKM": 40.0, "MIN_PERMI": 25.0, "MAX_PERMI": 25.0, "MIN_BBXMIN": -3.65833333, "MAX_BBXMIN": -3.65833333, "MIN_BBXMAX": -3.56666667, "MAX_BBXMAX": -3.56666667, "MIN_BBYMIN": 55.04166667, "MAX_BBYMIN": 55.04166667, "MIN_BBYMAX": 55.10833333, "MAX_BBYMAX": 55.10833333, "MEAN_BBXC": -3.6089539, "MEAN_BBYC": 55.07189716, "COMPARE": 0, "GN_ASCII": null, "FEATURE_CL": null, "FEATURE_CO": null, "ADMIN1_COD": 0.0, "GN_POP": 0.0, "ELEVATION": 0.0, "GTOPO30": 0.0, "TIMEZONE": null, "GEONAMESNO": null, "UN_FID": 0, "UN_ADM0": null, "UN_LAT": 0.0, "UN_LONG": 0.0, "POP1950": 0.0, "POP1955": 0.0, "POP1960": 0.0, "POP1965": 0.0, "POP1970": 0.0, "POP1975": 0.0, "POP1980": 0.0, "POP1985": 0.0, "POP1990": 0.0, "POP1995": 0.0, "POP2000": 0.0, "POP2005": 0.0, "POP2010": 0.0, "POP2015": 0.0, "POP2020": 0.0, "POP2025": 0.0, "POP2050": 0.0, "CITYALT": null, "min_zoom": 6.1, "wikidataid": "Q652035", "wof_id": 1141906975, "CAPALT": 0, "name_en": "Dumfries", "name_de": "Dumfries", "name_es": "Dumfries", "name_fr": "Dumfries", "name_pt": "Dumfries", "name_ru": "Дамфрис", "name_zh": "鄧弗里斯", "label": null, "name_ar": null, "name_bn": null, "name_el": null, "name_hi": null, "name_hu": "Dumfries", "name_id": null, "name_it": "Dumfries", "name_ja": "ダンフリーズ", "name_ko": "덤프리스", "name_nl": "Dumfries", "name_pl": "Dumfries", "name_sv": "Dumfries", "name_tr": null, "name_vi": null, "wdid_score": 4, "ne_id": 1159135111 }, "geometry": { "type": "Point", "coordinates": [ -3.550000652470487, 55.067089659741953 ] } },
{ "type": "Feature", "properties": { "SCALERANK": 7, "NATSCALE": 20, "LABELRANK": 5, "FEATURECLA": "Populated place", "NAME": "Scarborough", "NAMEPAR": null, "NAMEALT": null, "DIFFASCII": 0, "NAMEASCII": "Scarborough", "ADM0CAP": 0.0, "CAPIN": null, "WORLDCITY": 0.0, "MEGACITY": 0, "SOV0NAME": "United Kingdom", "SOV_A3": "GBR", "ADM0NAME": "United Kingdom", "ADM0_A3": "GBR", "ADM1NAME": "North Yorkshire", "ISO_A2": "GB", "NOTE": null, "LATITUDE": 54.2803934927, "LONGITUDE": -0.42998437641999998, "CHANGED": 0.0, "NAMEDIFF": 0, "DIFFNOTE": null, "POP_MAX": 70571, "POP_MIN": 70571, "POP_OTHER": 66389, "RANK_MAX": 8, "RANK_MIN": 8, "GEONAMEID": 2638419.0, "MEGANAME": null, "LS_NAME": "Scarborough", "LS_MATCH": 1, "CHECKME": 0, "MAX_POP10": 70571.0, "MAX_POP20": 70571.0, "MAX_POP50": 0.0, "MAX_POP300": 0.0, "MAX_POP310": 0.0, "MAX_NATSCA": 20.0, "MIN_AREAKM": 32.0, "MAX_AREAKM": 32.0, "MIN_AREAMI": 12.0, "MAX_AREAMI": 12.0, "MIN_PERKM": 53.0, "MAX_PERKM": 53.0, "MIN_PERMI": 33.0, "MAX_PERMI": 33.0, "MIN_BBXMIN": -0.46666667, "MAX_BBXMIN": -0.46666667, "MIN_BBXMAX": -0.36666667, "MAX_BBXMAX": -0.36666667, "MIN_BBYMIN": 54.225, "MAX_BBYMIN": 54.225, "MIN_BBYMAX": 54.30833333, "MAX_BBYMAX": 54.30833333, "MEAN_BBXC": -0.41541005, "MEAN_BBYC": 54.26765873, "COMPARE": 0, "GN_ASCII": null, "FEATURE_CL": null, "FEATURE_CO": null, "ADMIN1_COD": 0.0, "GN_POP": 0.0, "ELEVATION": 0.0, "GTOPO30": 0.0, "TIMEZONE": null, "GEONAMESNO": null, "UN_FID": 0, "UN_ADM0": null, "UN_LAT": 0.0, "UN_LONG": 0.0, "POP1950": 0.0, "POP1955": 0.0, "POP1960": 0.0, "POP1965": 0.0, "POP1970": 0.0, "POP1975": 0.0, "POP1980": 0.0, "POP1985": 0.0, "POP1990": 0.0, "POP1995": 0.0, "POP2000": 0.0, "POP2005": 0.0, "POP2010": 0.0, "POP2015": 0.0, "POP2020": 0.0, "POP2025": 0.0, "POP2050": 0.0, "CITYALT": null, "min_zoom": 6.7, "wikidataid": "Q743521", "wof_id": 1141906979, "CAPALT": 0, "name_en": "Scarborough", "name_de": "Scarborough", "name_es": "Scarborough", "name_fr": "Scarborough", "name_pt": "Scarborough", "name_ru": "Скарборо", "name_zh": "斯卡布羅", "label": null, "name_ar": "سكاربورو، شمال يوركشاير", "name_bn": "স্কারবোরাফ", "name_el": "Σκάρμπορο", "name_hi": "स्कारबोरो", "name_hu": "Scarborough", "name_id": null, "name_it": "Scarborough", "name_ja": "スカーブラ", "name_ko": "스카버러", "name_nl": "Scarborough", "name_pl": "Scarborough", "name_sv": "Scarborough", "name_tr": null, "name_vi": null, "wdid_score": 4, "ne_id": 1159135115 }, "geometry": { "type": "Point", "coordinates": [ -0.429984376416371, 54.280393492746555 ] } },
{ "type": "Feature", "properties": { "SCALERANK": 7, "NATSCALE": 20, "LABELRANK": 5, "FEATURECLA": "Populated place", "NAME": "Plymouth", "NAMEPAR": null, "NAMEALT": null, "DIFFASCII": 0, "NAMEASCII": "Plymouth", "ADM0CAP": 0.0, "CAPIN": null, "WORLDCITY": 0.0, "MEGACITY": 0, "SOV0NAME": "United Kingdom", "SOV_A3": "GBR", "ADM0NAME": "United Kingdom", "ADM0_A3": "GBR", "ADM1NAME": "Plymouth", "ISO_A2": "GB", "NOTE": null, "LATITUDE": 50.385385761599998, "LONGITUDE": -4.1599892592399996, "CHANGED": 0.0, "NAMEDIFF": 0, "DIFFNOTE": null, "POP_MAX": 247297, "POP_MIN": 231575, "POP_OTHER": 227019, "RANK_MAX": 10, "RANK_MIN": 10, "GEONAMEID": 2640194.0, "MEGANAME": null, "LS_NAME": "Plymouth", "LS_MATCH": 1, "CHECKME": 0, "MAX_POP10": 231575.0, "MAX_POP20": 231575.0, "MAX_POP50": 0.0, "MAX_POP300": 0.0, "MAX_POP310": 0.0, "MAX_NATSCA": 20.0, "MIN_AREAKM": 86.0, "MAX_AREAKM": 86.0, "MIN_AREAMI": 33.0, "MAX_AREAMI": 33.0, "MIN_PERKM": 78.0, "MAX_PERKM": 78.0, "MIN_PERMI": 48.0, "MAX_PERMI": 48.0, "MIN_BBXMIN": -4.20833333, "MAX_BBXMIN": -4.20833333, "MIN_BBXMAX": -4.00833333, "MAX_BBXMAX": -4.00833333, "MIN_BBYMIN": 50.34166667, "MAX_BBYMIN": 50.34166667, "MIN_BBYMAX": 50.45, "MAX_BBYMAX": 50.45, "MEAN_BBXC": -4.11950637, "MEAN_BBYC": 50.39328556, "COMPARE": 0, "GN_ASCII": "Plymouth", "FEATURE_CL": "P", "FEATURE_CO": "PPL", "ADMIN1_COD": 0.0, "GN_POP": 247297.0, "ELEVATION": 0.0, "GTOPO30": 10.0, "TIMEZONE": "Europe\/London", "GEONAMESNO": "GeoNames match with ascii name + lat + long whole numbers.", "UN_FID": 0, "UN_ADM0": null, "UN_LAT": 0.0, "UN_LONG": 0.0, "POP1950": 0.0, "POP1955": 0.0, "POP1960": 0.0, "POP1965": 0.0, "POP1970": 0.0, "POP1975": 0.0, "POP1980": 0.0, "POP1985": 0.0, "POP1990": 0.0, "POP1995": 0.0, "POP2000": 0.0, "POP2005": 0.0, "POP2010": 0.0, "POP2015": 0.0, "POP2020": 0.0, "POP2025": 0.0, "POP2050": 0.0, "CITYALT": null, "min_zoom": 6.7, "wikidataid": "Q43382", "wof_id": 101750297, "CAPALT": 0, "name_en": "Plymouth", "name_de": "Plymouth", "name_es": "Plymouth", "name_fr": "Plymouth", "name_pt": "Plymouth", "name_ru": "Плимут", "name_zh": "普利茅斯", "label": null, "name_ar": "بليموث", "name_bn": "প্লাইমাউথ", "name_el": "Πλίμουθ", "name_hi": "प्लायमाउथ", "name_hu": "Plymouth", "name_id": "Plymouth", "name_it": "Plymouth", "name_ja": "プリマス", "name_ko": "플리머스", "name_nl": "Plymouth", "name_pl": "Plymouth", "name_sv": "Plymouth", "name_tr": "Plymouth", "name_vi": "Plymouth", "wdid_score": 4, "ne_id": 1159135121 }, "geometry": { "type": "Point", "coordinates": [ -4.159989259243787, 50.38538576161119 ] } },
{ "type": "Feature", "properties": { "SCALERANK": 7, "NATSCALE": 20, "LABELRANK": 5, "FEATURECLA": "Populated place", "NAME": "Ipswich", "NAMEPAR": null, "NAMEALT": null, "DIFFASCII": 0, "NAMEASCII": "Ipswich", "ADM0CAP": 0.0, "CAPIN": null, "WORLDCITY": 0.0, "MEGACITY": 0, "SOV0NAME": "United Kingdom", "SOV_A3": "GBR", "ADM0NAME": "United Kingdom", "ADM0_A3": "GBR", "ADM1NAME": "Suffolk", "ISO_A2": "GB", "NOTE": null, "LATITUDE": 52.0703475129, "LONGITUDE": 1.16999548199, "CHANGED": 0.0, "NAMEDIFF": 0, "DIFFNOTE": null, "POP_MAX": 143767, "POP_MIN": 134257, "POP_OTHER": 132679, "RANK_MAX": 9, "RANK_MIN": 9, "GEONAMEID": 2646057.0, "MEGANAME": null, "LS_NAME": "Ipswich", "LS_MATCH": 1, "CHECKME": 0, "MAX_POP10": 134257.0, "MAX_POP20": 134257.0, "MAX_POP50": 0.0, "MAX_POP300": 0.0, "MAX_POP310": 0.0, "MAX_NATSCA": 20.0, "MIN_AREAKM": 66.0, "MAX_AREAKM": 66.0, "MIN_AREAMI": 25.0, "MAX_AREAMI": 25.0, "MIN_PERKM": 68.0, "MAX_PERKM": 68.0, "MIN_PERMI": 42.0, "MAX_PERMI": 42.0, "MIN_BBXMIN": 1.08333333, "MAX_BBXMIN": 1.08333333, "MIN_BBXMAX": 1.29166667, "MAX_BBXMAX": 1.29166667, "MIN_BBYMIN": 52.025, "MAX_BBYMIN": 52.025, "MIN_BBYMAX": 52.1, "MAX_BBYMAX": 52.1, "MEAN_BBXC": 1.17224462, "MEAN_BBYC": 52.05806452, "COMPARE": 0, "GN_ASCII": "Ipswich", "FEATURE_CL": "P", "FEATURE_CO": "PPL", "ADMIN1_COD": 0.0, "GN_POP": 143767.0, "ELEVATION": 0.0, "GTOPO30": 6.0, "TIMEZONE": "Europe\/London", "GEONAMESNO": "Geonames ascii name + lat.d + long.d matching.", "UN_FID": 0, "UN_ADM0": null, "UN_LAT": 0.0, "UN_LONG": 0.0, "POP1950": 0.0, "POP1955": 0.0, "POP1960": 0.0, "POP1965": 0.0, "POP1970": 0.0, "POP1975": 0.0, "POP1980": 0.0, "POP1985": 0.0, "POP1990": 0.0, "POP1995": 0.0, "POP2000": 0.0, "POP2005": 0.0, "POP2010": 0.0, "POP2015": 0.0, "POP2020": 0.0, "POP2025": 0.0, "POP2050": 0.0, "CITYALT": null, "min_zoom": 6.7, "wikidataid": "Q184775", "wof_id": 101750447, "CAPALT": 0, "name_en": "Ipswich", "name_de": "Ipswich", "name_es": "Ipswich", "name_fr": "Ipswich", "name_pt": "Ipswich", "name_ru": "Ипсуич", "name_zh": "伊普斯威奇", "label": null, "name_ar": "إبسويتش", "name_bn": "ইপ্সউইচ", "name_el": "Ίπσουιτς", "name_hi": null, "name_hu": "Ipswich", "name_id": "Ipswich", "name_it": "Ipswich", "name_ja": "イプスウィッチ", "name_ko": "입스위치", "name_nl": "Ipswich", "name_pl": "Ipswich", "name_sv": "Ipswich", "name_tr": "Ipswich", "name_vi": null, "wdid_score": 4, "ne_id": 1159135237 }, "geometry": { "type": "Point", "coordinates": [ 1.169995481988451, 52.070347512920023 ] } },
{ "type": "Feature", "properties": { "SCALERANK": 7, "NATSCALE": 20, "LABELRANK": 5, "FEATURECLA": "Populated place", "NAME": "Norwich", "NAMEPAR": null, "NAMEALT": null, "DIFFASCII": 0, "NAMEASCII": "Norwich", "ADM0CAP": 0.0, "CAPIN": null, "WORLDCITY": 0.0, "MEGACITY": 0, "SOV0NAME": "United Kingdom", "SOV_A3": "GBR", "ADM0NAME": "United Kingdom", "ADM0_A3": "GBR", "ADM1NAME": "Norfolk", "ISO_A2": "GB", "NOTE": null, "LATITUDE": 52.6303650097, "LONGITUDE": 1.30001338563, "CHANGED": 0.0, "NAMEDIFF": 0, "DIFFNOTE": null, "POP_MAX": 190756, "POP_MIN": 177636, "POP_OTHER": 185536, "RANK_MAX": 9, "RANK_MIN": 9, "GEONAMEID": 2641181.0, "MEGANAME": null, "LS_NAME": "Norwich", "LS_MATCH": 1, "CHECKME": 0, "MAX_POP10": 190756.0, "MAX_POP20": 190756.0, "MAX_POP50": 0.0, "MAX_POP300": 0.0, "MAX_POP310": 0.0, "MAX_NATSCA": 20.0, "MIN_AREAKM": 78.0, "MAX_AREAKM": 78.0, "MIN_AREAMI": 30.0, "MAX_AREAMI": 30.0, "MIN_PERKM": 75.0, "MAX_PERKM": 75.0, "MIN_PERMI": 47.0, "MAX_PERMI": 47.0, "MIN_BBXMIN": 1.18333333, "MAX_BBXMIN": 1.18333333, "MIN_BBXMAX": 1.375, "MAX_BBXMAX": 1.375, "MIN_BBYMIN": 52.58333333, "MAX_BBYMIN": 52.58333333, "MIN_BBYMAX": 52.7, "MAX_BBYMAX": 52.7, "MEAN_BBXC": 1.27553132, "MEAN_BBYC": 52.64180649, "COMPARE": 0, "GN_ASCII": "Norwich", "FEATURE_CL": "P", "FEATURE_CO": "PPL", "ADMIN1_COD": 0.0, "GN_POP": 177636.0, "ELEVATION": 0.0, "GTOPO30": 9.0, "TIMEZONE": "Europe\/London", "GEONAMESNO": "Geonames ascii name + lat.d + long.d matching.", "UN_FID": 0, "UN_ADM0": null, "UN_LAT": 0.0, "UN_LONG": 0.0, "POP1950": 0.0, "POP1955": 0.0, "POP1960": 0.0, "POP1965": 0.0, "POP1970": 0.0, "POP1975": 0.0, "POP1980": 0.0, "POP1985": 0.0, "POP1990": 0.0, "POP1995": 0.0, "POP2000": 0.0, "POP2005": 0.0, "POP2010": 0.0, "POP2015": 0.0, "POP2020": 0.0, "POP2025": 0.0, "POP2050": 0.0, "CITYALT": null, "min_zoom": 6.1, "wikidataid": "Q130191", "wof_id": 101750483, "CAPALT": 0, "name_en": "Norwich", "name_de": "Norwich", "name_es": "Norwich", "name_fr": "Norwich", "name_pt": "Norwich", "name_ru": "Норидж", "name_zh": "諾里奇", "label": null, "name_ar": "نورويتش", "name_bn": "নরউইচ", "name_el": "Νόργουιτς", "name_hi": "नॉर्विच", "name_hu": "Norwich", "name_id": "Norwich", "name_it": "Norwich", "name_ja": "ノリッチ", "name_ko": "노리치", "name_nl": "Norwich", "name_pl": "Norwich", "name_sv": "Norwich", "name_tr": "Norwich", "name_vi": "Norwich", "wdid_score": 4, "ne_id": 1159135241 }, "geometry": { "type": "Point", "coordinates": [ 1.300013385634941, 52.630365009667116 ] } },
{ "type": "Feature", "properties": { "SCALERANK": 7, "NATSCALE": 20, "LABELRANK": 5, "FEATURECLA": "Populated place", "NAME": "Brighton", "NAMEPAR": null, "NAMEALT": null, "DIFFASCII": 0, "NAMEASCII": "Brighton", "ADM0CAP": 0.0, "CAPIN": null, "WORLDCITY": 0.0, "MEGACITY": 0, "SOV0NAME": "United Kingdom", "SOV_A3": "GBR", "ADM0NAME": "United Kingdom", "ADM0_A3": "GBR", "ADM1NAME": "Brighton and Hove", "ISO_A2": "GB", "NOTE": null, "LATITUDE": 50.830345681899999, "LONGITUDE": -0.16997440734, "CHANGED": 0.0, "NAMEDIFF": 0, "DIFFNOTE": null, "POP_MAX": 503008, "POP_MIN": 139001, "POP_OTHER": 432796, "RANK_MAX": 11, "RANK_MIN": 9, "GEONAMEID": 2654710.0, "MEGANAME": null, "LS_NAME": "Brighton", "LS_MATCH": 1, "CHECKME": 2, "MAX_POP10": 503008.0, "MAX_POP20": 503008.0, "MAX_POP50": 0.0, "MAX_POP300": 0.0, "MAX_POP310": 0.0, "MAX_NATSCA": 20.0, "MIN_AREAKM": 169.0, "MAX_AREAKM": 169.0, "MIN_AREAMI": 65.0, "MAX_AREAMI": 65.0, "MIN_PERKM": 201.0, "MAX_PERKM": 201.0, "MIN_PERMI": 125.0, "MAX_PERMI": 125.0, "MIN_BBXMIN": -0.55833333, "MAX_BBXMIN": -0.55833333, "MIN_BBXMAX": 0.08333333, "MAX_BBXMAX": 0.08333333, "MIN_BBYMIN": 50.78333333, "MAX_BBYMIN": 50.78333333, "MIN_BBYMAX": 50.88333333, "MAX_BBYMAX": 50.88333333, "MEAN_BBXC": -0.25244624, "MEAN_BBYC": 50.82865591, "COMPARE": 0, "GN_ASCII": "Brighton", "FEATURE_CL": "P", "FEATURE_CO": "PPL", "ADMIN1_COD": 0.0, "GN_POP": 139001.0, "ELEVATION": 0.0, "GTOPO30": 22.0, "TIMEZONE": "Europe\/London", "GEONAMESNO": "GeoNames match with ascii name + lat + long whole numbers.", "UN_FID": 0, "UN_ADM0": null, "UN_LAT": 0.0, "UN_LONG": 0.0, "POP1950": 0.0, "POP1955": 0.0, "POP1960": 0.0, "POP1965": 0.0, "POP1970": 0.0, "POP1975": 0.0, "POP1980": 0.0, "POP1985": 0.0, "POP1990": 0.0, "POP1995": 0.0, "POP2000": 0.0, "POP2005": 0.0, "POP2010": 0.0, "POP2015": 0.0, "POP2020": 0.0, "POP2025": 0.0, "POP2050": 0.0, "CITYALT": null, "min_zoom": 6.1, "wikidataid": "Q131491", "wof_id": 1141906989, "CAPALT": 0, "name_en": "Brighton", "name_de": "Brighton", "name_es": "Brighton", "name_fr": "Brighton", "name_pt": "Brighton", "name_ru": "Брайтон", "name_zh": "布赖顿", "label": null, "name_ar": "برايتون", "name_bn": "ব্রাইটন", "name_el": "Μπράιτον", "name_hi": "ब्राइटन", "name_hu": "Brighton", "name_id": "Brighton", "name_it": "Brighton", "name_ja": "ブライトン", "name_ko": "브라이턴", "name_nl": "Brighton", "name_pl": "Brighton", "name_sv": "Brighton", "name_tr": "Brighton", "name_vi": "Brighton", "wdid_score": 4, "ne_id": 1159135295 }, "geometry": { "type": "Point", "coordinates": [ -0.169974407339794, 50.830345681860308 ] } },
{ "type": "Feature", "properties": { "SCALERANK": 7, "NATSCALE": 20, "LABELRANK": 5, "FEATURECLA": "Populated place", "NAME": "Kirkwall", "NAMEPAR": null, "NAMEALT": null, "DIFFASCII": 0, "NAMEASCII": "Kirkwall", "ADM0CAP": 0.0, "CAPIN": null, "WORLDCITY": 0.0, "MEGACITY": 0, "SOV0NAME": "United Kingdom", "SOV_A3": "GBR", "ADM0NAME": "United Kingdom", "ADM0_A3": "GBR", "ADM1NAME": "Moray", "ISO_A2": "GB", "NOTE": null, "LATITUDE": 58.966980813699998, "LONGITUDE": -2.95001143535, "CHANGED": 0.0, "NAMEDIFF": 0, "DIFFNOTE": null, "POP_MAX": 8500, "POP_MIN": 3153, "POP_OTHER": 0, "RANK_MAX": 5, "RANK_MIN": 4, "GEONAMEID": 2645198.0, "MEGANAME": null, "LS_NAME": "Kirkwall", "LS_MATCH": 1, "CHECKME": 0, "MAX_POP10": 3153.0, "MAX_POP20": 3153.0, "MAX_POP50": 0.0, "MAX_POP300": 0.0, "MAX_POP310": 0.0, "MAX_NATSCA": 20.0, "MIN_AREAKM": 5.0, "MAX_AREAKM": 5.0, "MIN_AREAMI": 2.0, "MAX_AREAMI": 2.0, "MIN_PERKM": 14.0, "MAX_PERKM": 14.0, "MIN_PERMI": 9.0, "MAX_PERMI": 9.0, "MIN_BBXMIN": -2.98333333, "MAX_BBXMIN": -2.98333333, "MIN_BBXMAX": -2.93333333, "MAX_BBXMAX": -2.93333333, "MIN_BBYMIN": 58.96666667, "MAX_BBYMIN": 58.96666667, "MIN_BBYMAX": 58.99166667, "MAX_BBYMAX": 58.99166667, "MEAN_BBXC": -2.95694444, "MEAN_BBYC": 58.98125, "COMPARE": 0, "GN_ASCII": "Kirkwall", "FEATURE_CL": "P", "FEATURE_CO": "PPL", "ADMIN1_COD": 0.0, "GN_POP": 8500.0, "ELEVATION": 0.0, "GTOPO30": 1.0, "TIMEZONE": "Europe\/London", "GEONAMESNO": "Geonames ascii name + lat.d + long.d matching.", "UN_FID": 0, "UN_ADM0": null, "UN_LAT": 0.0, "UN_LONG": 0.0, "POP1950": 0.0, "POP1955": 0.0, "POP1960": 0.0, "POP1965": 0.0, "POP1970": 0.0, "POP1975": 0.0, "POP1980": 0.0, "POP1985": 0.0, "POP1990": 0.0, "POP1995": 0.0, "POP2000": 0.0, "POP2005": 0.0, "POP2010": 0.0, "POP2015": 0.0, "POP2020": 0.0, "POP2025": 0.0, "POP2050": 0.0, "CITYALT": null, "min_zoom": 6.7, "wikidataid": "Q208329", "wof_id": 101874209, "CAPALT": 0, "name_en": "Kirkwall", "name_de": "Kirkwall", "name_es": "Kirkwall", "name_fr": "Kirkwall", "name_pt": "Kirkwall", "name_ru": "Керкуолл", "name_zh": "柯克沃尔", "label": null, "name_ar": "كيركوول", "name_bn": "কিরকওয়াল", "name_el": "Κέρκγουολ", "name_hi": null, "name_hu": "Kirkwall", "name_id": "Kirkwall", "name_it": "Kirkwall", "name_ja": "カークウォール", "name_ko": "커크월", "name_nl": "Kirkwall", "name_pl": "Kirkwall", "name_sv": "Kirkwall", "name_tr": null, "name_vi": null, "wdid_score": 4, "ne_id": 1159135297 }, "geometry": { "type": "Point", "coordinates": [ -2.950011435345687, 58.966980813728867 ] } },
{ "type": "Feature", "properties": { "SCALERANK": 7, "NATSCALE": 20, "LABELRANK": 5, "FEATURECLA": "Populated place", "NAME": "Inverness", "NAMEPAR": null, "NAMEALT": null, "DIFFASCII": 0, "NAMEASCII": "Inverness", "ADM0CAP": 0.0, "CAPIN": null, "WORLDCITY": 0.0, "MEGACITY": 0, "SOV0NAME": "United Kingdom", "SOV_A3": "GBR", "ADM0NAME": "United Kingdom", "ADM0_A3": "GBR", "ADM1NAME": "Highland", "ISO_A2": "GB", "NOTE": null, "LATITUDE": 57.467124042899997, "LONGITUDE": -4.2332664402300004, "CHANGED": 0.0, "NAMEDIFF": 0, "DIFFNOTE": null, "POP_MAX": 45158, "POP_MIN": 40755, "POP_OTHER": 44726, "RANK_MAX": 7, "RANK_MIN": 7, "GEONAMEID": 2646088.0, "MEGANAME": null, "LS_NAME": "Inverness", "LS_MATCH": 1, "CHECKME": 0, "MAX_POP10": 45158.0, "MAX_POP20": 45158.0, "MAX_POP50": 0.0, "MAX_POP300": 0.0, "MAX_POP310": 0.0, "MAX_NATSCA": 20.0, "MIN_AREAKM": 25.0, "MAX_AREAKM": 25.0, "MIN_AREAMI": 9.0, "MAX_AREAMI": 9.0, "MIN_PERKM": 35.0, "MAX_PERKM": 35.0, "MIN_PERMI": 22.0, "MAX_PERMI": 22.0, "MIN_BBXMIN": -4.275, "MAX_BBXMIN": -4.275, "MIN_BBXMAX": -4.18333333, "MAX_BBXMAX": -4.18333333, "MIN_BBYMIN": 57.44166667, "MAX_BBYMIN": 57.44166667, "MIN_BBYMAX": 57.50833333, "MAX_BBYMAX": 57.50833333, "MEAN_BBXC": -4.22822327, "MEAN_BBYC": 57.47476415, "COMPARE": 0, "GN_ASCII": "Inverness", "FEATURE_CL": "P", "FEATURE_CO": "PPL", "ADMIN1_COD": 0.0, "GN_POP": 40755.0, "ELEVATION": 0.0, "GTOPO30": 23.0, "TIMEZONE": "Europe\/London", "GEONAMESNO": "Geonames ascii name + lat.d + long.d matching.", "UN_FID": 0, "UN_ADM0": null, "UN_LAT": 0.0, "UN_LONG": 0.0, "POP1950": 0.0, "POP1955": 0.0, "POP1960": 0.0, "POP1965": 0.0, "POP1970": 0.0, "POP1975": 0.0, "POP1980": 0.0, "POP1985": 0.0, "POP1990": 0.0, "POP1995": 0.0, "POP2000": 0.0, "POP2005": 0.0, "POP2010": 0.0, "POP2015": 0.0, "POP2020": 0.0, "POP2025": 0.0, "POP2050": 0.0, "CITYALT": null, "min_zoom": 6.1, "wikidataid": "Q160493", "wof_id": 101873667, "CAPALT": 0, "name_en": "Inverness", "name_de": "Inverness", "name_es": "Inverness", "name_fr": "Inverness", "name_pt": "Inverness", "name_ru": "Инвернесс", "name_zh": "印威內斯", "label": null, "name_ar": "إنفرنيس", "name_bn": "ইভারনেস", "name_el": "Ινβερνές", "name_hi": "इनवर्नेस", "name_hu": "Inverness", "name_id": "Inverness", "name_it": "Inverness", "name_ja": "インヴァネス", "name_ko": "인버네스", "name_nl": "Inverness", "name_pl": "Inverness", "name_sv": "Inverness", "name_tr": "Inverness", "name_vi": "Inverness", "wdid_score": 4, "ne_id": 1159135301 }, "geometry": { "type": "Point", "coordinates": [ -4.233266440233649, 57.467124042889623 ] } },
{ "type": "Feature", "properties": { "SCALERANK": 7, "NATSCALE": 20, "LABELRANK": 5, "FEATURECLA": "Populated place", "NAME": "Oxford", "NAMEPAR": null, "NAMEALT": null, "DIFFASCII": 0, "NAMEASCII": "Oxford", "ADM0CAP": 0.0, "CAPIN": null, "WORLDCITY": 0.0, "MEGACITY": 0, "SOV0NAME": "United Kingdom", "SOV_A3": "GBR", "ADM0NAME": "United Kingdom", "ADM0_A3": "GBR", "ADM1NAME": "Oxfordshire", "ISO_A2": "GB", "NOTE": null, "LATITUDE": 51.770417499899999, "LONGITUDE": -1.2499860040199999, "CHANGED": 0.0, "NAMEDIFF": 0, "DIFFNOTE": null, "POP_MAX": 192796, "POP_MIN": 154566, "POP_OTHER": 133148, "RANK_MAX": 9, "RANK_MIN": 9, "GEONAMEID": 2640729.0, "MEGANAME": null, "LS_NAME": "Oxford", "LS_MATCH": 1, "CHECKME": 0, "MAX_POP10": 192796.0, "MAX_POP20": 192796.0, "MAX_POP50": 0.0, "MAX_POP300": 0.0, "MAX_POP310": 0.0, "MAX_NATSCA": 20.0, "MIN_AREAKM": 94.0, "MAX_AREAKM": 94.0, "MIN_AREAMI": 36.0, "MAX_AREAMI": 36.0, "MIN_PERKM": 119.0, "MAX_PERKM": 119.0, "MIN_PERMI": 74.0, "MAX_PERMI": 74.0, "MIN_BBXMIN": -1.34166667, "MAX_BBXMIN": -1.34166667, "MIN_BBXMAX": -1.15833333, "MAX_BBXMAX": -1.15833333, "MIN_BBYMIN": 51.65833333, "MAX_BBYMIN": 51.65833333, "MIN_BBYMAX": 51.85, "MAX_BBYMAX": 51.85, "MEAN_BBXC": -1.25535038, "MEAN_BBYC": 51.7454072, "COMPARE": 0, "GN_ASCII": "Oxford", "FEATURE_CL": "P", "FEATURE_CO": "PPL", "ADMIN1_COD": 0.0, "GN_POP": 154566.0, "ELEVATION": 0.0, "GTOPO30": 66.0, "TIMEZONE": "Europe\/London", "GEONAMESNO": "GeoNames match with ascii name + lat + long whole numbers.", "UN_FID": 0, "UN_ADM0": null, "UN_LAT": 0.0, "UN_LONG": 0.0, "POP1950": 0.0, "POP1955": 0.0, "POP1960": 0.0, "POP1965": 0.0, "POP1970": 0.0, "POP1975": 0.0, "POP1980": 0.0, "POP1985": 0.0, "POP1990": 0.0, "POP1995": 0.0, "POP2000": 0.0, "POP2005": 0.0, "POP2010": 0.0, "POP2015": 0.0, "POP2020": 0.0, "POP2025": 0.0, "POP2050": 0.0, "CITYALT": null, "min_zoom": 6.1, "wikidataid": "Q34217", "wof_id": 101750439, "CAPALT": 0, "name_en": "Oxford", "name_de": "Oxford", "name_es": "Oxford", "name_fr": "Oxford", "name_pt": "Oxford", "name_ru": "Оксфорд", "name_zh": "牛津", "label": null, "name_ar": "أكسفورد", "name_bn": "অক্সফোর্ড", "name_el": "Οξφόρδη", "name_hi": "ऑक्सफोर्ड", "name_hu": "Oxford", "name_id": "Oxford", "name_it": "Oxford", "name_ja": "オックスフォード", "name_ko": "옥스퍼드", "name_nl": "Oxford", "name_pl": "Oksford", "name_sv": "Oxford", "name_tr": "Oxford", "name_vi": "Oxford", "wdid_score": 4, "ne_id": 1159135303 }, "geometry": { "type": "Point", "coordinates": [ -1.24998600402381, 51.770417499898031 ] } },
{ "type": "Feature", "properties": { "SCALERANK": 7, "NATSCALE": 20, "LABELRANK": 5, "FEATURECLA": "Populated place", "NAME": "Luton", "NAMEPAR": null, "NAMEALT": null, "DIFFASCII": 0, "NAMEASCII": "Luton", "ADM0CAP": 0.0, "CAPIN": null, "WORLDCITY": 0.0, "MEGACITY": 0, "SOV0NAME": "United Kingdom", "SOV_A3": "GBR", "ADM0NAME": "United Kingdom", "ADM0_A3": "GBR", "ADM1NAME": "Luton", "ISO_A2": "GB", "NOTE": null, "LATITUDE": 51.880359109600001, "LONGITUDE": -0.42001082497999997, "CHANGED": 0.0, "NAMEDIFF": 0, "DIFFNOTE": null, "POP_MAX": 235958, "POP_MIN": 193669, "POP_OTHER": 677450, "RANK_MAX": 10, "RANK_MIN": 9, "GEONAMEID": 2643339.0, "MEGANAME": null, "LS_NAME": "Luton", "LS_MATCH": 1, "CHECKME": 2, "MAX_POP10": 235958.0, "MAX_POP20": 235027.0, "MAX_POP50": 0.0, "MAX_POP300": 0.0, "MAX_POP310": 0.0, "MAX_NATSCA": 20.0, "MIN_AREAKM": 76.0, "MAX_AREAKM": 78.0, "MIN_AREAMI": 29.0, "MAX_AREAMI": 30.0, "MIN_PERKM": 87.0, "MAX_PERKM": 95.0, "MIN_PERMI": 54.0, "MAX_PERMI": 59.0, "MIN_BBXMIN": -0.55, "MAX_BBXMIN": -0.55, "MIN_BBXMAX": -0.35, "MAX_BBXMAX": -0.23333333, "MIN_BBYMIN": 51.64166667, "MAX_BBYMIN": 51.85, "MIN_BBYMAX": 51.95, "MAX_BBYMAX": 51.95, "MEAN_BBXC": -0.449096405, "MEAN_BBYC": 51.89152598, "COMPARE": 0, "GN_ASCII": "Luton", "FEATURE_CL": "P", "FEATURE_CO": "PPL", "ADMIN1_COD": 0.0, "GN_POP": 193669.0, "ELEVATION": 0.0, "GTOPO30": 130.0, "TIMEZONE": "Europe\/London", "GEONAMESNO": "Geonames ascii name + lat.d + long.d matching.", "UN_FID": 0, "UN_ADM0": null, "UN_LAT": 0.0, "UN_LONG": 0.0, "POP1950": 0.0, "POP1955": 0.0, "POP1960": 0.0, "POP1965": 0.0, "POP1970": 0.0, "POP1975": 0.0, "POP1980": 0.0, "POP1985": 0.0, "POP1990": 0.0, "POP1995": 0.0, "POP2000": 0.0, "POP2005": 0.0, "POP2010": 0.0, "POP2015": 0.0, "POP2020": 0.0, "POP2025": 0.0, "POP2050": 0.0, "CITYALT": null, "min_zoom": 6.7, "wikidataid": "Q203889", "wof_id": 101750401, "CAPALT": 0, "name_en": "Luton", "name_de": "Luton", "name_es": "Luton", "name_fr": "Luton", "name_pt": "Luton", "name_ru": "Лутон", "name_zh": "卢顿", "label": null, "name_ar": "لوتن", "name_bn": "লুটন", "name_el": "Λούτον", "name_hi": null, "name_hu": "Luton", "name_id": "Luton", "name_it": "Luton", "name_ja": "ルートン", "name_ko": "루턴", "name_nl": "Luton", "name_pl": "Luton", "name_sv": "Luton", "name_tr": null, "name_vi": "Luton", "wdid_score": 4, "ne_id": 1159135305 }, "geometry": { "type": "Point", "coordinates": [ -0.42001082498399, 51.880359109598942 ] } },
{ "type": "Feature", "properties": { "SCALERANK": 7, "NATSCALE": 20, "LABELRANK": 5, "FEATURECLA": "Populated place", "NAME": "Portsmouth", "NAMEPAR": null, "NAMEALT": null, "DIFFASCII": 0, "NAMEASCII": "Portsmouth", "ADM0CAP": 0.0, "CAPIN": null, "WORLDCITY": 0.0, "MEGACITY": 0, "SOV0NAME": "United Kingdom", "SOV_A3": "GBR", "ADM0NAME": "United Kingdom", "ADM0_A3": "GBR", "ADM1NAME": "Portsmouth", "ISO_A2": "GB", "NOTE": null, "LATITUDE": 50.800347512899997, "LONGITUDE": -1.0800222182200001, "CHANGED": 0.0, "NAMEDIFF": 0, "DIFFNOTE": null, "POP_MAX": 442252, "POP_MIN": 205100, "POP_OTHER": 456844, "RANK_MAX": 10, "RANK_MIN": 10, "GEONAMEID": 2639996.0, "MEGANAME": null, "LS_NAME": "Portsmouth", "LS_MATCH": 1, "CHECKME": 0, "MAX_POP10": 466065.0, "MAX_POP20": 848573.0, "MAX_POP50": 0.0, "MAX_POP300": 0.0, "MAX_POP310": 0.0, "MAX_NATSCA": 20.0, "MIN_AREAKM": 172.0, "MAX_AREAKM": 329.0, "MIN_AREAMI": 66.0, "MAX_AREAMI": 127.0, "MIN_PERKM": 178.0, "MAX_PERKM": 340.0, "MIN_PERMI": 110.0, "MAX_PERMI": 211.0, "MIN_BBXMIN": -1.48333333, "MAX_BBXMIN": -1.24262094, "MIN_BBXMAX": -0.875, "MAX_BBXMAX": -0.875, "MIN_BBYMIN": 50.775, "MAX_BBYMIN": 50.775, "MIN_BBYMAX": 50.95, "MAX_BBYMAX": 51.00833333, "MEAN_BBXC": -1.143290675, "MEAN_BBYC": 50.86342502, "COMPARE": 0, "GN_ASCII": "Portsmouth", "FEATURE_CL": "P", "FEATURE_CO": "PPL", "ADMIN1_COD": 0.0, "GN_POP": 194150.0, "ELEVATION": 0.0, "GTOPO30": 1.0, "TIMEZONE": "Europe\/London", "GEONAMESNO": "Geonames ascii name + lat.d + long.d matching.", "UN_FID": 0, "UN_ADM0": null, "UN_LAT": 0.0, "UN_LONG": 0.0, "POP1950": 0.0, "POP1955": 0.0, "POP1960": 0.0, "POP1965": 0.0, "POP1970": 0.0, "POP1975": 0.0, "POP1980": 0.0, "POP1985": 0.0, "POP1990": 0.0, "POP1995": 0.0, "POP2000": 0.0, "POP2005": 0.0, "POP2010": 0.0, "POP2015": 0.0, "POP2020": 0.0, "POP2025": 0.0, "POP2050": 0.0, "CITYALT": null, "min_zoom": 6.1, "wikidataid": "Q72259", "wof_id": 101750307, "CAPALT": 0, "name_en": "Portsmouth", "name_de": "Portsmouth", "name_es": "Portsmouth", "name_fr": "Portsmouth", "name_pt": "Portsmouth", "name_ru": "Портсмут", "name_zh": "朴次茅斯", "label": null, "name_ar": "بورتسموث", "name_bn": "পোর্টস্‌মাথ", "name_el": "Πόρτσμουθ", "name_hi": "पोर्ट्समाउथ", "name_hu": "Portsmouth", "name_id": "Portsmouth", "name_it": "Portsmouth", "name_ja": "ポーツマス", "name_ko": "포츠머스", "name_nl": "Portsmouth", "name_pl": "Portsmouth", "name_sv": "Portsmouth", "name_tr": "Portsmouth", "name_vi": "Portsmouth", "wdid_score": 4, "ne_id": 1159135309 }, "geometry": { "type": "Point", "coordinates": [ -1.080022218215845, 50.800347512914982 ] } },
{ "type": "Feature", "properties": { "SCALERANK": 7, "NATSCALE": 20, "LABELRANK": 5, "FEATURECLA": "Populated place", "NAME": "Peterborough", "NAMEPAR": null, "NAMEALT": null, "DIFFASCII": 0, "NAMEASCII": "Peterborough", "ADM0CAP": 0.0, "CAPIN": null, "WORLDCITY": 0.0, "MEGACITY": 0, "SOV0NAME": "United Kingdom", "SOV_A3": "GBR", "ADM0NAME": "United Kingdom", "ADM0_A3": "GBR", "ADM1NAME": "Peterborough", "ISO_A2": "GB", "NOTE": null, "LATITUDE": 52.580419737900002, "LONGITUDE": -0.24999536274, "CHANGED": 1.0, "NAMEDIFF": 1, "DIFFNOTE": "Added place. Population from GeoNames.", "POP_MAX": 140141, "POP_MIN": 140141, "POP_OTHER": 0, "RANK_MAX": 9, "RANK_MIN": 9, "GEONAMEID": 2640354.0, "MEGANAME": null, "LS_NAME": null, "LS_MATCH": 2, "CHECKME": 0, "MAX_POP10": 0.0, "MAX_POP20": 0.0, "MAX_POP50": 0.0, "MAX_POP300": 0.0, "MAX_POP310": 0.0, "MAX_NATSCA": 0.0, "MIN_AREAKM": 0.0, "MAX_AREAKM": 0.0, "MIN_AREAMI": 0.0, "MAX_AREAMI": 0.0, "MIN_PERKM": 0.0, "MAX_PERKM": 0.0, "MIN_PERMI": 0.0, "MAX_PERMI": 0.0, "MIN_BBXMIN": 0.0, "MAX_BBXMIN": 0.0, "MIN_BBXMAX": 0.0, "MAX_BBXMAX": 0.0, "MIN_BBYMIN": 0.0, "MAX_BBYMIN": 0.0, "MIN_BBYMAX": 0.0, "MAX_BBYMAX": 0.0, "MEAN_BBXC": 0.0, "MEAN_BBYC": 0.0, "COMPARE": 1, "GN_ASCII": "Peterborough", "FEATURE_CL": "P", "FEATURE_CO": "PPL", "ADMIN1_COD": 0.0, "GN_POP": 140141.0, "ELEVATION": 0.0, "GTOPO30": 28.0, "TIMEZONE": "Europe\/London", "GEONAMESNO": "Geonames ascii name + lat.d + long.d matching.", "UN_FID": 0, "UN_ADM0": null, "UN_LAT": 0.0, "UN_LONG": 0.0, "POP1950": 0.0, "POP1955": 0.0, "POP1960": 0.0, "POP1965": 0.0, "POP1970": 0.0, "POP1975": 0.0, "POP1980": 0.0, "POP1985": 0.0, "POP1990": 0.0, "POP1995": 0.0, "POP2000": 0.0, "POP2005": 0.0, "POP2010": 0.0, "POP2015": 0.0, "POP2020": 0.0, "POP2025": 0.0, "POP2050": 0.0, "CITYALT": null, "min_zoom": 6.7, "wikidataid": "Q172438", "wof_id": 101750461, "CAPALT": 0, "name_en": "Peterborough", "name_de": "Peterborough", "name_es": "Peterborough", "name_fr": "Peterborough", "name_pt": "Peterborough", "name_ru": "Питерборо", "name_zh": "彼得伯勒", "label": null, "name_ar": "بيتربرة", "name_bn": "পিটারবার্গ", "name_el": "Πήτερμπορο", "name_hi": "पीटरबरो", "name_hu": "Peterborough", "name_id": "Peterborough", "name_it": "Peterborough", "name_ja": "ピーターバラ", "name_ko": "피터버러", "name_nl": "Peterborough", "name_pl": "Peterborough", "name_sv": "Peterborough", "name_tr": "Peterborough", "name_vi": "Peterborough", "wdid_score": 4, "ne_id": 1159135313 }, "geometry": { "type": "Point", "coordinates": [ -0.249995362743675, 52.580419737857028 ] } },
{ "type": "Feature", "properties": { "SCALERANK": 7, "NATSCALE": 20, "LABELRANK": 5, "FEATURECLA": "Populated place", "NAME": "Nottingham", "NAMEPAR": null, "NAMEALT": null, "DIFFASCII": 0, "NAMEASCII": "Nottingham", "ADM0CAP": 0.0, "CAPIN": null, "WORLDCITY": 0.0, "MEGACITY": 0, "SOV0NAME": "United Kingdom", "SOV_A3": "GBR", "ADM0NAME": "United Kingdom", "ADM0_A3": "GBR", "ADM1NAME": "Nottingham", "ISO_A2": "GB", "NOTE": null, "LATITUDE": 52.970344257699999, "LONGITUDE": -1.17001672505, "CHANGED": 0.0, "NAMEDIFF": 0, "DIFFNOTE": null, "POP_MAX": 825600, "POP_MIN": 305700, "POP_OTHER": 549128, "RANK_MAX": 11, "RANK_MIN": 10, "GEONAMEID": 2641170.0, "MEGANAME": null, "LS_NAME": "Nottingham", "LS_MATCH": 1, "CHECKME": 2, "MAX_POP10": 832187.0, "MAX_POP20": 832187.0, "MAX_POP50": 0.0, "MAX_POP300": 0.0, "MAX_POP310": 0.0, "MAX_NATSCA": 20.0, "MIN_AREAKM": 395.0, "MAX_AREAKM": 395.0, "MIN_AREAMI": 152.0, "MAX_AREAMI": 152.0, "MIN_PERKM": 376.0, "MAX_PERKM": 376.0, "MIN_PERMI": 234.0, "MAX_PERMI": 234.0, "MIN_BBXMIN": -1.425, "MAX_BBXMIN": -1.425, "MIN_BBXMAX": -1.01666667, "MAX_BBXMAX": -1.01666667, "MIN_BBYMIN": 52.875, "MAX_BBYMIN": 52.875, "MIN_BBYMAX": 53.19166667, "MAX_BBYMAX": 53.19166667, "MEAN_BBXC": -1.2374562, "MEAN_BBYC": 53.01757008, "COMPARE": 0, "GN_ASCII": "Nottingham", "FEATURE_CL": "P", "FEATURE_CO": "PPL", "ADMIN1_COD": 0.0, "GN_POP": 246654.0, "ELEVATION": 0.0, "GTOPO30": 61.0, "TIMEZONE": "Europe\/London", "GEONAMESNO": "Geonames ascii name + lat.d + long.d matching.", "UN_FID": 0, "UN_ADM0": null, "UN_LAT": 0.0, "UN_LONG": 0.0, "POP1950": 0.0, "POP1955": 0.0, "POP1960": 0.0, "POP1965": 0.0, "POP1970": 0.0, "POP1975": 0.0, "POP1980": 0.0, "POP1985": 0.0, "POP1990": 0.0, "POP1995": 0.0, "POP2000": 0.0, "POP2005": 0.0, "POP2010": 0.0, "POP2015": 0.0, "POP2020": 0.0, "POP2025": 0.0, "POP2050": 0.0, "CITYALT": null, "min_zoom": 5.1, "wikidataid": "Q41262", "wof_id": 101750491, "CAPALT": 0, "name_en": "Nottingham", "name_de": "Nottingham", "name_es": "Nottingham", "name_fr": "Nottingham", "name_pt": "Nottingham", "name_ru": "Ноттингем", "name_zh": "诺丁汉", "label": null, "name_ar": "نوتنغهام", "name_bn": "নটিংহাম", "name_el": "Νότιγχαμ", "name_hi": "नॉटिंघम", "name_hu": "Nottingham", "name_id": "Nottingham", "name_it": "Nottingham", "name_ja": "ノッティンガム", "name_ko": "노팅엄", "name_nl": "Nottingham", "name_pl": "Nottingham", "name_sv": "Nottingham", "name_tr": "Nottingham", "name_vi": "Nottingham", "wdid_score": 4, "ne_id": 1159135319 }, "geometry": { "type": "Point", "coordinates": [ -1.170016725052108, 52.970344257715226 ] } },
{ "type": "Feature", "properties": { "SCALERANK": 7, "NATSCALE": 20, "LABELRANK": 5, "FEATURECLA": "Populated place", "NAME": "Stoke", "NAMEPAR": null, "NAMEALT": null, "DIFFASCII": 0, "NAMEASCII": "Stoke", "ADM0CAP": 0.0, "CAPIN": null, "WORLDCITY": 0.0, "MEGACITY": 0, "SOV0NAME": "United Kingdom", "SOV_A3": "GBR", "ADM0NAME": "United Kingdom", "ADM0_A3": "GBR", "ADM1NAME": "Stoke-on-Trent", "ISO_A2": "GB", "NOTE": null, "LATITUDE": 53.000368264899997, "LONGITUDE": -2.18000675598, "CHANGED": 0.0, "NAMEDIFF": 0, "DIFFNOTE": null, "POP_MAX": 390801, "POP_MIN": 260419, "POP_OTHER": 377029, "RANK_MAX": 10, "RANK_MIN": 10, "GEONAMEID": 2636841.0, "MEGANAME": null, "LS_NAME": "Stoke", "LS_MATCH": 1, "CHECKME": 2, "MAX_POP10": 390801.0, "MAX_POP20": 390801.0, "MAX_POP50": 0.0, "MAX_POP300": 0.0, "MAX_POP310": 0.0, "MAX_NATSCA": 20.0, "MIN_AREAKM": 188.0, "MAX_AREAKM": 188.0, "MIN_AREAMI": 72.0, "MAX_AREAMI": 72.0, "MIN_PERKM": 182.0, "MAX_PERKM": 182.0, "MIN_PERMI": 113.0, "MAX_PERMI": 113.0, "MIN_BBXMIN": -2.34166667, "MAX_BBXMIN": -2.34166667, "MIN_BBXMAX": -2.04166667, "MAX_BBXMAX": -2.04166667, "MIN_BBYMIN": 52.95, "MAX_BBYMIN": 52.95, "MIN_BBYMAX": 53.13333333, "MAX_BBYMAX": 53.13333333, "MEAN_BBXC": -2.18473757, "MEAN_BBYC": 53.03347145, "COMPARE": 0, "GN_ASCII": "Stoke-on-Trent", "FEATURE_CL": "P", "FEATURE_CO": "PPL", "ADMIN1_COD": 0.0, "GN_POP": 260419.0, "ELEVATION": 0.0, "GTOPO30": 132.0, "TIMEZONE": "Europe\/London", "GEONAMESNO": "GeoNames spatial join with similar names only.", "UN_FID": 0, "UN_ADM0": null, "UN_LAT": 0.0, "UN_LONG": 0.0, "POP1950": 0.0, "POP1955": 0.0, "POP1960": 0.0, "POP1965": 0.0, "POP1970": 0.0, "POP1975": 0.0, "POP1980": 0.0, "POP1985": 0.0, "POP1990": 0.0, "POP1995": 0.0, "POP2000": 0.0, "POP2005": 0.0, "POP2010": 0.0, "POP2015": 0.0, "POP2020": 0.0, "POP2025": 0.0, "POP2050": 0.0, "CITYALT": null, "min_zoom": 6.1, "wikidataid": "Q134902", "wof_id": 101750495, "CAPALT": 0, "name_en": "Stoke-on-Trent", "name_de": "Stoke-on-Trent", "name_es": "Stoke-on-Trent", "name_fr": "Stoke-on-Trent", "name_pt": "Stoke-on-Trent", "name_ru": "Сток-он-Трент", "name_zh": "特倫特河畔斯托克", "label": null, "name_ar": "ستوك أون ترينت", "name_bn": "স্টোক অন ট্রেন্ট", "name_el": "Στόουκ ον Τρεντ", "name_hi": "स्टॉक ऑन ट्रेंट", "name_hu": "Stoke-on-Trent", "name_id": "Stoke-on-Trent", "name_it": "Stoke-on-Trent", "name_ja": "ストーク・オン・トレント", "name_ko": "스토크온트렌트", "name_nl": "Stoke-on-Trent", "name_pl": "Stoke-on-Trent", "name_sv": "Stoke-on-Trent", "name_tr": "Stoke-on-Trent", "name_vi": "Stoke-on-Trent", "wdid_score": 4, "ne_id": 1159135323 }, "geometry": { "type": "Point", "coordinates": [ -2.180006755980628, 53.000368264876954 ] } },
{ "type": "Feature", "properties": { "SCALERANK": 7, "NATSCALE": 20, "LABELRANK": 5, "FEATURECLA": "Populated place", "NAME": "Dover", "NAMEPAR": null, "NAMEALT": null, "DIFFASCII": 0, "NAMEASCII": "Dover", "ADM0CAP": 0.0, "CAPIN": null, "WORLDCITY": 0.0, "MEGACITY": 0, "SOV0NAME": "United Kingdom", "SOV_A3": "GBR", "ADM0NAME": "United Kingdom", "ADM0_A3": "GBR", "ADM1NAME": "Kent", "ISO_A2": "GB", "NOTE": null, "LATITUDE": 51.133712177600003, "LONGITUDE": 1.30001338563, "CHANGED": 0.0, "NAMEDIFF": 0, "DIFFNOTE": null, "POP_MAX": 36384, "POP_MIN": 28156, "POP_OTHER": 74556, "RANK_MAX": 7, "RANK_MIN": 7, "GEONAMEID": 2651048.0, "MEGANAME": null, "LS_NAME": "Dover2", "LS_MATCH": 1, "CHECKME": 0, "MAX_POP10": 36384.0, "MAX_POP20": 36384.0, "MAX_POP50": 0.0, "MAX_POP300": 0.0, "MAX_POP310": 0.0, "MAX_NATSCA": 20.0, "MIN_AREAKM": 24.0, "MAX_AREAKM": 24.0, "MIN_AREAMI": 9.0, "MAX_AREAMI": 9.0, "MIN_PERKM": 29.0, "MAX_PERKM": 29.0, "MIN_PERMI": 18.0, "MAX_PERMI": 18.0, "MIN_BBXMIN": 1.25833333, "MAX_BBXMIN": 1.25833333, "MIN_BBXMAX": 1.33333333, "MAX_BBXMAX": 1.33333333, "MIN_BBYMIN": 51.10833333, "MAX_BBYMIN": 51.10833333, "MIN_BBYMAX": 51.175, "MAX_BBYMAX": 51.175, "MEAN_BBXC": 1.29731481, "MEAN_BBYC": 51.14083333, "COMPARE": 0, "GN_ASCII": "Dover", "FEATURE_CL": "P", "FEATURE_CO": "PPL", "ADMIN1_COD": 0.0, "GN_POP": 28156.0, "ELEVATION": 0.0, "GTOPO30": 33.0, "TIMEZONE": "Europe\/London", "GEONAMESNO": "Geonames ascii name + lat.d + long.d matching.", "UN_FID": 0, "UN_ADM0": null, "UN_LAT": 0.0, "UN_LONG": 0.0, "POP1950": 0.0, "POP1955": 0.0, "POP1960": 0.0, "POP1965": 0.0, "POP1970": 0.0, "POP1975": 0.0, "POP1980": 0.0, "POP1985": 0.0, "POP1990": 0.0, "POP1995": 0.0, "POP2000": 0.0, "POP2005": 0.0, "POP2010": 0.0, "POP2015": 0.0, "POP2020": 0.0, "POP2025": 0.0, "POP2050": 0.0, "CITYALT": null, "min_zoom": 6.1, "wikidataid": "Q179224", "wof_id": 101854657, "CAPALT": 0, "name_en": "Dover", "name_de": "Dover", "name_es": "Dover", "name_fr": "Douvres", "name_pt": "Dover", "name_ru": "Дувр", "name_zh": "多佛尔", "label": null, "name_ar": "دوفر", "name_bn": "ডোভার", "name_el": "Ντόβερ", "name_hi": null, "name_hu": "Dover", "name_id": "Dover", "name_it": "Dover", "name_ja": "ドーバー", "name_ko": "도버", "name_nl": "Dover", "name_pl": "Dover", "name_sv": "Dover", "name_tr": "Dover", "name_vi": null, "wdid_score": 4, "ne_id": 1159135701 }, "geometry": { "type": "Point", "coordinates": [ 1.300013385634941, 51.133712177629945 ] } },
{ "type": "Feature", "properties": { "SCALERANK": 6, "NATSCALE": 30, "LABELRANK": 5, "FEATURECLA": "Admin-0 region capital", "NAME": "Edinburgh", "NAMEPAR": null, "NAMEALT": null, "DIFFASCII": 0, "NAMEASCII": "Edinburgh", "ADM0CAP": 0.0, "CAPIN": null, "WORLDCITY": 0.0, "MEGACITY": 0, "SOV0NAME": "United Kingdom", "SOV_A3": "GBR", "ADM0NAME": "United Kingdom", "ADM0_A3": "GBR", "ADM1NAME": "Edinburgh", "ISO_A2": "GB", "NOTE": null, "LATITUDE": 55.948327859599999, "LONGITUDE": -3.2190906182900001, "CHANGED": 1.0, "NAMEDIFF": 0, "DIFFNOTE": "Changed scale rank.", "POP_MAX": 504966, "POP_MIN": 435791, "POP_OTHER": 442794, "RANK_MAX": 11, "RANK_MIN": 10, "GEONAMEID": 2650225.0, "MEGANAME": null, "LS_NAME": "Edinburgh", "LS_MATCH": 1, "CHECKME": 0, "MAX_POP10": 504966.0, "MAX_POP20": 504966.0, "MAX_POP50": 0.0, "MAX_POP300": 0.0, "MAX_POP310": 0.0, "MAX_NATSCA": 20.0, "MIN_AREAKM": 175.0, "MAX_AREAKM": 175.0, "MIN_AREAMI": 68.0, "MAX_AREAMI": 68.0, "MIN_PERKM": 194.0, "MAX_PERKM": 194.0, "MIN_PERMI": 121.0, "MAX_PERMI": 121.0, "MIN_BBXMIN": -3.35833333, "MAX_BBXMIN": -3.35833333, "MIN_BBXMAX": -3.00833333, "MAX_BBXMAX": -3.00833333, "MIN_BBYMIN": 55.83333333, "MAX_BBYMIN": 55.83333333, "MIN_BBYMAX": 55.98333333, "MAX_BBYMAX": 55.98333333, "MEAN_BBXC": -3.18084715, "MEAN_BBYC": 55.92239871, "COMPARE": 0, "GN_ASCII": "Edinburgh", "FEATURE_CL": "P", "FEATURE_CO": "PPLA", "ADMIN1_COD": 0.0, "GN_POP": 435791.0, "ELEVATION": 0.0, "GTOPO30": 32.0, "TIMEZONE": "Europe\/London", "GEONAMESNO": "GeoNames match general.", "UN_FID": 0, "UN_ADM0": null, "UN_LAT": 0.0, "UN_LONG": 0.0, "POP1950": 0.0, "POP1955": 0.0, "POP1960": 0.0, "POP1965": 0.0, "POP1970": 0.0, "POP1975": 0.0, "POP1980": 0.0, "POP1985": 0.0, "POP1990": 0.0, "POP1995": 0.0, "POP2000": 0.0, "POP2005": 0.0, "POP2010": 0.0, "POP2015": 0.0, "POP2020": 0.0, "POP2025": 0.0, "POP2050": 0.0, "CITYALT": null, "min_zoom": 5.1, "wikidataid": "Q23436", "wof_id": 101750629, "CAPALT": 0, "name_en": "Edinburgh", "name_de": "Edinburgh", "name_es": "Edimburgo", "name_fr": "Édimbourg", "name_pt": "Edimburgo", "name_ru": "Эдинбург", "name_zh": "爱丁堡", "label": null, "name_ar": "إدنبرة", "name_bn": "এডিনবরা", "name_el": "Εδιμβούργο", "name_hi": "एडिनबरा", "name_hu": "Edinburgh", "name_id": "Edinburgh", "name_it": "Edimburgo", "name_ja": "エディンバラ", "name_ko": "에든버러", "name_nl": "Edinburgh", "name_pl": "Edynburg", "name_sv": "Edinburgh", "name_tr": "Edinburgh", "name_vi": "Edinburgh", "wdid_score": 4, "ne_id": 1159146365 }, "geometry": { "type": "Point", "coordinates": [ -3.219090618289499, 55.948327859615347 ] } },
{ "type": "Feature", "properties": { "SCALERANK": 6, "NATSCALE": 30, "LABELRANK": 5, "FEATURECLA": "Populated place", "NAME": "Newcastle", "NAMEPAR": null, "NAMEALT": "Newcastle upon Tyne", "DIFFASCII": 0, "NAMEASCII": "Newcastle", "ADM0CAP": 0.0, "CAPIN": null, "WORLDCITY": 0.0, "MEGACITY": 1, "SOV0NAME": "United Kingdom", "SOV_A3": "GBR", "ADM0NAME": "United Kingdom", "ADM0_A3": "GBR", "ADM1NAME": "Tyne and Wear", "ISO_A2": "GB", "NOTE": null, "LATITUDE": 55.000375385700004, "LONGITUDE": -1.59999047994, "CHANGED": 0.0, "NAMEDIFF": 0, "DIFFNOTE": null, "POP_MAX": 882000, "POP_MIN": 192382, "POP_OTHER": 660783, "RANK_MAX": 11, "RANK_MIN": 9, "GEONAMEID": 2641673.0, "MEGANAME": "Newcastle upon Tyne", "LS_NAME": "Newcastle", "LS_MATCH": 1, "CHECKME": 0, "MAX_POP10": 717948.0, "MAX_POP20": 1134616.0, "MAX_POP50": 273848.0, "MAX_POP300": 273848.0, "MAX_POP310": 0.0, "MAX_NATSCA": 100.0, "MIN_AREAKM": 179.0, "MAX_AREAKM": 479.0, "MIN_AREAMI": 69.0, "MAX_AREAMI": 185.0, "MIN_PERKM": 188.0, "MAX_PERKM": 374.0, "MIN_PERMI": 117.0, "MAX_PERMI": 233.0, "MIN_BBXMIN": -1.8, "MAX_BBXMIN": 151.56666667, "MIN_BBXMAX": -1.45124859, "MAX_BBXMAX": 151.79166667000001, "MIN_BBYMIN": -33.04166667, "MAX_BBYMIN": 54.84166667, "MIN_BBYMAX": -32.86666667, "MAX_BBYMAX": 55.10833333, "MEAN_BBXC": 75.048748702500006, "MEAN_BBYC": 11.0071067275, "COMPARE": 0, "GN_ASCII": "Newcastle upon Tyne", "FEATURE_CL": "P", "FEATURE_CO": "PPL", "ADMIN1_COD": 0.0, "GN_POP": 192382.0, "ELEVATION": 0.0, "GTOPO30": 20.0, "TIMEZONE": "Europe\/London", "GEONAMESNO": "GeoNames rough area, rough name.", "UN_FID": 521, "UN_ADM0": "United Kingdom", "UN_LAT": 54.96, "UN_LONG": -1.6, "POP1950": 909.0, "POP1955": 921.0, "POP1960": 934.0, "POP1965": 913.0, "POP1970": 886.0, "POP1975": 838.0, "POP1980": 790.0, "POP1985": 825.0, "POP1990": 877.0, "POP1995": 883.0, "POP2000": 880.0, "POP2005": 880.0, "POP2010": 882.0, "POP2015": 887.0, "POP2020": 898.0, "POP2025": 908.0, "POP2050": 918.0, "CITYALT": null, "min_zoom": 5.1, "wikidataid": "Q1425428", "wof_id": 101750617, "CAPALT": 0, "name_en": "Newcastle upon Tyne", "name_de": "Newcastle upon Tyne", "name_es": "Newcastle upon Tyne", "name_fr": "Newcastle upon Tyne", "name_pt": "Newcastle upon Tyne", "name_ru": "Ньюкасл на Тайне", "name_zh": "泰恩河畔纽卡斯尔", "label": null, "name_ar": "نيوكاسل أبون تاين", "name_bn": "নিউক্যাসল আপন টাইন", "name_el": "Νιούκασλ", "name_hi": "न्यूकैसल अपॉन टाइन नोड", "name_hu": "Newcastle upon Tyne", "name_id": "Newcastle upon Tyne", "name_it": "Newcastle upon Tyne", "name_ja": "ニューカッスル・アポン・タイン", "name_ko": "뉴캐슬어폰타인", "name_nl": "Newcastle upon Tyne", "name_pl": "Newcastle upon Tyne", "name_sv": "Newcastle upon Tyne", "name_tr": "Newcastle upon Tyne", "name_vi": "Newcastle trên sông Tyne", "wdid_score": 4, "ne_id": 1159146367 }, "geometry": { "type": "Point", "coordinates": [ -1.601936338549592, 55.002321244266113 ] } },
{ "type": "Feature", "properties": { "SCALERANK": 6, "NATSCALE": 30, "LABELRANK": 5, "FEATURECLA": "Populated place", "NAME": "Liverpool", "NAMEPAR": null, "NAMEALT": null, "DIFFASCII": 0, "NAMEASCII": "Liverpool", "ADM0CAP": 0.0, "CAPIN": null, "WORLDCITY": 0.0, "MEGACITY": 1, "SOV0NAME": "United Kingdom", "SOV_A3": "GBR", "ADM0NAME": "United Kingdom", "ADM0_A3": "GBR", "ADM1NAME": "Merseyside", "ISO_A2": "GB", "NOTE": null, "LATITUDE": 53.416001809800001, "LONGITUDE": -2.9179978855400002, "CHANGED": 1.0, "NAMEDIFF": 0, "DIFFNOTE": "Changed scale rank.", "POP_MAX": 811000, "POP_MIN": 468945, "POP_OTHER": 4331, "RANK_MAX": 11, "RANK_MIN": 10, "GEONAMEID": 2644210.0, "MEGANAME": "Liverpool", "LS_NAME": "Liverpool2", "LS_MATCH": 1, "CHECKME": 0, "MAX_POP10": 1300960.0, "MAX_POP20": 1305570.0, "MAX_POP50": 0.0, "MAX_POP300": 0.0, "MAX_POP310": 0.0, "MAX_NATSCA": 20.0, "MIN_AREAKM": 535.0, "MAX_AREAKM": 542.0, "MIN_AREAMI": 206.0, "MAX_AREAMI": 209.0, "MIN_PERKM": 392.0, "MAX_PERKM": 404.0, "MIN_PERMI": 244.0, "MAX_PERMI": 251.0, "MIN_BBXMIN": -3.05833333, "MAX_BBXMIN": -3.05833333, "MIN_BBXMAX": -2.56737809, "MAX_BBXMAX": -2.56737809, "MIN_BBYMIN": 53.26666667, "MAX_BBYMIN": 53.30561397, "MIN_BBYMAX": 53.6, "MAX_BBYMAX": 53.6, "MEAN_BBXC": -2.781568775, "MEAN_BBYC": 53.443273065, "COMPARE": 0, "GN_ASCII": "Liverpool", "FEATURE_CL": "P", "FEATURE_CO": "PPL", "ADMIN1_COD": 0.0, "GN_POP": 468945.0, "ELEVATION": 0.0, "GTOPO30": 5.0, "TIMEZONE": "Europe\/London", "GEONAMESNO": "GeoNames match with ascii name + lat + long whole numbers.", "UN_FID": 518, "UN_ADM0": "United Kingdom", "UN_LAT": 53.42, "UN_LONG": -2.97, "POP1950": 1382.0, "POP1955": 1383.0, "POP1960": 1384.0, "POP1965": 1334.0, "POP1970": 1276.0, "POP1975": 1018.0, "POP1980": 784.0, "POP1985": 788.0, "POP1990": 831.0, "POP1995": 829.0, "POP2000": 818.0, "POP2005": 811.0, "POP2010": 811.0, "POP2015": 815.0, "POP2020": 825.0, "POP2025": 836.0, "POP2050": 845.0, "CITYALT": null, "min_zoom": 6.0, "wikidataid": "Q24826", "wof_id": 101750547, "CAPALT": 0, "name_en": "Liverpool", "name_de": "Liverpool", "name_es": "Liverpool", "name_fr": "Liverpool", "name_pt": "Liverpool", "name_ru": "Ливерпуль", "name_zh": "利物浦", "label": null, "name_ar": "ليفربول", "name_bn": "লিভারপুল", "name_el": "Λίβερπουλ", "name_hi": "लिवरपूल", "name_hu": "Liverpool", "name_id": "Liverpool", "name_it": "Liverpool", "name_ja": "リヴァプール", "name_ko": "리버풀", "name_nl": "Liverpool", "name_pl": "Liverpool", "name_sv": "Liverpool", "name_tr": "Liverpool", "name_vi": "Liverpool", "wdid_score": 4, "ne_id": 1159146371 }, "geometry": { "type": "Point", "coordinates": [ -2.919943744153841, 53.41794766841349 ] } },
{ "type": "Feature", "properties": { "SCALERANK": 6, "NATSCALE": 30, "LABELRANK": 5, "FEATURECLA": "Admin-0 region capital", "NAME": "Cardiff", "NAMEPAR": null, "NAMEALT": null, "DIFFASCII": 0, "NAMEASCII": "Cardiff", "ADM0CAP": 0.0, "CAPIN": null, "WORLDCITY": 0.0, "MEGACITY": 0, "SOV0NAME": "United Kingdom", "SOV_A3": "GBR", "ADM0NAME": "United Kingdom", "ADM0_A3": "GBR", "ADM1NAME": "Cardiff", "ISO_A2": "GB", "NOTE": null, "LATITUDE": 51.499994729699999, "LONGITUDE": -3.2250075697899998, "CHANGED": 1.0, "NAMEDIFF": 0, "DIFFNOTE": "Changed scale rank.", "POP_MAX": 861400, "POP_MIN": 346100, "POP_OTHER": 458831, "RANK_MAX": 11, "RANK_MIN": 10, "GEONAMEID": 2172349.0, "MEGANAME": null, "LS_NAME": "Cardiff", "LS_MATCH": 1, "CHECKME": 5, "MAX_POP10": 527695.0, "MAX_POP20": 528178.0, "MAX_POP50": 0.0, "MAX_POP300": 0.0, "MAX_POP310": 0.0, "MAX_NATSCA": 20.0, "MIN_AREAKM": 289.0, "MAX_AREAKM": 290.0, "MIN_AREAMI": 111.0, "MAX_AREAMI": 112.0, "MIN_PERKM": 375.0, "MAX_PERKM": 381.0, "MIN_PERMI": 233.0, "MAX_PERMI": 237.0, "MIN_BBXMIN": -3.575, "MAX_BBXMIN": -3.55584083, "MIN_BBXMAX": -3.05833333, "MAX_BBXMAX": -3.05833333, "MIN_BBYMIN": 51.41666667, "MAX_BBYMIN": 51.41666667, "MIN_BBYMAX": 51.75833333, "MAX_BBYMAX": 51.75833333, "MEAN_BBXC": -3.30703458, "MEAN_BBYC": 51.5719716, "COMPARE": 0, "GN_ASCII": "Cardiff", "FEATURE_CL": "P", "FEATURE_CO": "PPL", "ADMIN1_COD": 2.0, "GN_POP": 2883.0, "ELEVATION": 0.0, "GTOPO30": 1.0, "TIMEZONE": "Australia\/Sydney", "GEONAMESNO": "GeoNames match general.", "UN_FID": 0, "UN_ADM0": null, "UN_LAT": 0.0, "UN_LONG": 0.0, "POP1950": 0.0, "POP1955": 0.0, "POP1960": 0.0, "POP1965": 0.0, "POP1970": 0.0, "POP1975": 0.0, "POP1980": 0.0, "POP1985": 0.0, "POP1990": 0.0, "POP1995": 0.0, "POP2000": 0.0, "POP2005": 0.0, "POP2010": 0.0, "POP2015": 0.0, "POP2020": 0.0, "POP2025": 0.0, "POP2050": 0.0, "CITYALT": null, "min_zoom": 5.1, "wikidataid": "Q10690", "wof_id": 101929817, "CAPALT": 0, "name_en": "Cardiff", "name_de": "Cardiff", "name_es": "Cardiff", "name_fr": "Cardiff", "name_pt": "Cardiff", "name_ru": "Кардифф", "name_zh": "加的夫", "label": null, "name_ar": "كارديف", "name_bn": "কার্ডিফ", "name_el": "Κάρντιφ", "name_hi": "कार्डिफ़", "name_hu": "Cardiff", "name_id": "Cardiff", "name_it": "Cardiff", "name_ja": "カーディフ", "name_ko": "카디프", "name_nl": "Cardiff", "name_pl": "Cardiff", "name_sv": "Cardiff", "name_tr": "Cardiff", "name_vi": "Cardiff", "wdid_score": 4, "ne_id": 1159146373 }, "geometry": { "type": "Point", "coordinates": [ -3.225007569786953, 51.499994729714615 ] } },
{ "type": "Feature", "properties": { "SCALERANK": 6, "NATSCALE": 30, "LABELRANK": 5, "FEATURECLA": "Populated place", "NAME": "Wick", "NAMEPAR": null, "NAMEALT": null, "DIFFASCII": 0, "NAMEASCII": "Wick", "ADM0CAP": 0.0, "CAPIN": null, "WORLDCITY": 0.0, "MEGACITY": 0, "SOV0NAME": "United Kingdom", "SOV_A3": "GBR", "ADM0NAME": "United Kingdom", "ADM0_A3": "GBR", "ADM1NAME": "Highland", "ISO_A2": "GB", "NOTE": null, "LATITUDE": 58.433292459199997, "LONGITUDE": -3.0833624688699999, "CHANGED": 1.0, "NAMEDIFF": 1, "DIFFNOTE": "Added place. Population from GeoNames.", "POP_MAX": 7147, "POP_MIN": 7147, "POP_OTHER": 0, "RANK_MAX": 5, "RANK_MIN": 5, "GEONAMEID": 2633982.0, "MEGANAME": null, "LS_NAME": null, "LS_MATCH": 2, "CHECKME": 0, "MAX_POP10": 0.0, "MAX_POP20": 0.0, "MAX_POP50": 0.0, "MAX_POP300": 0.0, "MAX_POP310": 0.0, "MAX_NATSCA": 0.0, "MIN_AREAKM": 0.0, "MAX_AREAKM": 0.0, "MIN_AREAMI": 0.0, "MAX_AREAMI": 0.0, "MIN_PERKM": 0.0, "MAX_PERKM": 0.0, "MIN_PERMI": 0.0, "MAX_PERMI": 0.0, "MIN_BBXMIN": 0.0, "MAX_BBXMIN": 0.0, "MIN_BBXMAX": 0.0, "MAX_BBXMAX": 0.0, "MIN_BBYMIN": 0.0, "MAX_BBYMIN": 0.0, "MIN_BBYMAX": 0.0, "MAX_BBYMAX": 0.0, "MEAN_BBXC": 0.0, "MEAN_BBYC": 0.0, "COMPARE": 1, "GN_ASCII": "Wick", "FEATURE_CL": "P", "FEATURE_CO": "PPL", "ADMIN1_COD": 0.0, "GN_POP": 7147.0, "ELEVATION": 0.0, "GTOPO30": -9999.0, "TIMEZONE": "Europe\/London", "GEONAMESNO": "Geonames ascii name + lat.d + long.d matching.", "UN_FID": 0, "UN_ADM0": null, "UN_LAT": 0.0, "UN_LONG": 0.0, "POP1950": 0.0, "POP1955": 0.0, "POP1960": 0.0, "POP1965": 0.0, "POP1970": 0.0, "POP1975": 0.0, "POP1980": 0.0, "POP1985": 0.0, "POP1990": 0.0, "POP1995": 0.0, "POP2000": 0.0, "POP2005": 0.0, "POP2010": 0.0, "POP2015": 0.0, "POP2020": 0.0, "POP2025": 0.0, "POP2050": 0.0, "CITYALT": null, "min_zoom": 6.0, "wikidataid": "Q1012502", "wof_id": 101873675, "CAPALT": 0, "name_en": "Wick", "name_de": "Wick", "name_es": "Wick", "name_fr": "Wick", "name_pt": "Wick", "name_ru": "Уик", "name_zh": "維克", "label": null, "name_ar": "ويك", "name_bn": "উইক", "name_el": null, "name_hi": null, "name_hu": null, "name_id": null, "name_it": "Wick", "name_ja": "ウィック", "name_ko": "윅", "name_nl": "Wick", "name_pl": "Invernes", "name_sv": "Wick", "name_tr": null, "name_vi": null, "wdid_score": 4, "ne_id": 1159146383 }, "geometry": { "type": "Point", "coordinates": [ -3.083362468874896, 58.433292459234508 ] } },
{ "type": "Feature", "properties": { "SCALERANK": 6, "NATSCALE": 30, "LABELRANK": 5, "FEATURECLA": "Populated place", "NAME": "Leeds", "NAMEPAR": null, "NAMEALT": "West Yorkshire", "DIFFASCII": 0, "NAMEASCII": "Leeds", "ADM0CAP": 0.0, "CAPIN": null, "WORLDCITY": 0.0, "MEGACITY": 1, "SOV0NAME": "United Kingdom", "SOV_A3": "GBR", "ADM0NAME": "United Kingdom", "ADM0_A3": "GBR", "ADM1NAME": "West Yorkshire", "ISO_A2": "GB", "NOTE": null, "LATITUDE": 53.830007547100003, "LONGITUDE": -1.58001753886, "CHANGED": 0.0, "NAMEDIFF": 0, "DIFFNOTE": null, "POP_MAX": 1529000, "POP_MIN": 455123, "POP_OTHER": 770655, "RANK_MAX": 12, "RANK_MIN": 10, "GEONAMEID": 2644688.0, "MEGANAME": "West Yorkshire", "LS_NAME": "Leeds", "LS_MATCH": 1, "CHECKME": 0, "MAX_POP10": 810324.0, "MAX_POP20": 0.0, "MAX_POP50": 0.0, "MAX_POP300": 0.0, "MAX_POP310": 0.0, "MAX_NATSCA": 10.0, "MIN_AREAKM": 293.0, "MAX_AREAKM": 293.0, "MIN_AREAMI": 113.0, "MAX_AREAMI": 113.0, "MIN_PERKM": 231.0, "MAX_PERKM": 231.0, "MIN_PERMI": 143.0, "MAX_PERMI": 143.0, "MIN_BBXMIN": -1.67558453, "MAX_BBXMIN": -1.67558453, "MIN_BBXMAX": -1.425, "MAX_BBXMAX": -1.425, "MIN_BBYMIN": 53.61666667, "MAX_BBYMIN": 53.61666667, "MIN_BBYMAX": 53.88333333, "MAX_BBYMAX": 53.88333333, "MEAN_BBXC": -1.55102397, "MEAN_BBYC": 53.76052441, "COMPARE": 0, "GN_ASCII": "Leeds", "FEATURE_CL": "P", "FEATURE_CO": "PPL", "ADMIN1_COD": 0.0, "GN_POP": 455123.0, "ELEVATION": 0.0, "GTOPO30": 67.0, "TIMEZONE": "Europe\/London", "GEONAMESNO": "GeoNames match with ascii name + lat + long whole numbers.", "UN_FID": 522, "UN_ADM0": "United Kingdom", "UN_LAT": 53.79, "UN_LONG": -1.54, "POP1950": 1692.0, "POP1955": 1697.0, "POP1960": 1703.0, "POP1965": 1714.0, "POP1970": 1726.0, "POP1975": 1618.0, "POP1980": 1496.0, "POP1985": 1465.0, "POP1990": 1449.0, "POP1995": 1468.0, "POP2000": 1495.0, "POP2005": 1521.0, "POP2010": 1529.0, "POP2015": 1539.0, "POP2020": 1552.0, "POP2025": 1565.0, "POP2050": 1575.0, "CITYALT": null, "min_zoom": 5.6, "wikidataid": "Q39121", "wof_id": 101750579, "CAPALT": 0, "name_en": "Leeds", "name_de": "Leeds", "name_es": "Leeds", "name_fr": "Leeds", "name_pt": "Leeds", "name_ru": "Лидс", "name_zh": "利兹", "label": null, "name_ar": "ليدز", "name_bn": "লীড্স", "name_el": "Ληντς", "name_hi": "लीड्स", "name_hu": "Leeds", "name_id": "Leeds", "name_it": "Leeds", "name_ja": "リーズ", "name_ko": "리즈", "name_nl": "Leeds", "name_pl": "Leeds", "name_sv": "Leeds", "name_tr": "Leeds", "name_vi": "Leeds", "wdid_score": 4, "ne_id": 1159146385 }, "geometry": { "type": "Point", "coordinates": [ -1.581963397468712, 53.831953405719901 ] } },
{ "type": "Feature", "properties": { "SCALERANK": 6, "NATSCALE": 30, "LABELRANK": 5, "FEATURECLA": "Populated place", "NAME": "Lerwick", "NAMEPAR": null, "NAMEALT": null, "DIFFASCII": 0, "NAMEASCII": "Lerwick", "ADM0CAP": 0.0, "CAPIN": null, "WORLDCITY": 0.0, "MEGACITY": 0, "SOV0NAME": "United Kingdom", "SOV_A3": "GBR", "ADM0NAME": "United Kingdom", "ADM0_A3": "GBR", "ADM1NAME": "Aberdeen", "ISO_A2": "GB", "NOTE": null, "LATITUDE": 60.150035216399999, "LONGITUDE": -1.1499921075399999, "CHANGED": 1.0, "NAMEDIFF": 0, "DIFFNOTE": "Changed scale rank.", "POP_MAX": 6594, "POP_MIN": 4614, "POP_OTHER": 4366, "RANK_MAX": 5, "RANK_MIN": 4, "GEONAMEID": 2644605.0, "MEGANAME": null, "LS_NAME": "Lerwick", "LS_MATCH": 1, "CHECKME": 0, "MAX_POP10": 4614.0, "MAX_POP20": 4614.0, "MAX_POP50": 0.0, "MAX_POP300": 0.0, "MAX_POP310": 0.0, "MAX_NATSCA": 20.0, "MIN_AREAKM": 6.0, "MAX_AREAKM": 6.0, "MIN_AREAMI": 2.0, "MAX_AREAMI": 2.0, "MIN_PERKM": 19.0, "MAX_PERKM": 19.0, "MIN_PERMI": 12.0, "MAX_PERMI": 12.0, "MIN_BBXMIN": -1.19166667, "MAX_BBXMIN": -1.19166667, "MIN_BBXMAX": -1.13333333, "MAX_BBXMAX": -1.13333333, "MIN_BBYMIN": 60.14166667, "MAX_BBYMIN": 60.14166667, "MIN_BBYMAX": 60.175, "MAX_BBYMAX": 60.175, "MEAN_BBXC": -1.16130952, "MEAN_BBYC": 60.15535714, "COMPARE": 0, "GN_ASCII": "Lerwick", "FEATURE_CL": "P", "FEATURE_CO": "PPL", "ADMIN1_COD": 0.0, "GN_POP": 6594.0, "ELEVATION": 0.0, "GTOPO30": -9999.0, "TIMEZONE": "Europe\/London", "GEONAMESNO": "GeoNames match with ascii name + lat + long whole numbers.", "UN_FID": 0, "UN_ADM0": null, "UN_LAT": 0.0, "UN_LONG": 0.0, "POP1950": 0.0, "POP1955": 0.0, "POP1960": 0.0, "POP1965": 0.0, "POP1970": 0.0, "POP1975": 0.0, "POP1980": 0.0, "POP1985": 0.0, "POP1990": 0.0, "POP1995": 0.0, "POP2000": 0.0, "POP2005": 0.0, "POP2010": 0.0, "POP2015": 0.0, "POP2020": 0.0, "POP2025": 0.0, "POP2050": 0.0, "CITYALT": null, "min_zoom": 6.0, "wikidataid": "Q213485", "wof_id": 101874215, "CAPALT": 0, "name_en": "Lerwick", "name_de": "Lerwick", "name_es": "Lerwick", "name_fr": "Lerwick", "name_pt": "Lerwick", "name_ru": "Леруик", "name_zh": "勒威克", "label": null, "name_ar": "ميناء ليرويك", "name_bn": "লারওয়িক", "name_el": "Λέργουικ", "name_hi": null, "name_hu": "Lerwick", "name_id": "Lerwick", "name_it": "Lerwick", "name_ja": "ラーウィック", "name_ko": "러윅", "name_nl": "Lerwick", "name_pl": "Lerwick", "name_sv": "Lerwick", "name_tr": null, "name_vi": null, "wdid_score": 4, "ne_id": 1159147847 }, "geometry": { "type": "Point", "coordinates": [ -1.149992107539049, 60.150035216402841 ] } },
{ "type": "Feature", "properties": { "SCALERANK": 4, "NATSCALE": 50, "LABELRANK": 5, "FEATURECLA": "Populated place", "NAME": "Manchester", "NAMEPAR": null, "NAMEALT": null, "DIFFASCII": 0, "NAMEASCII": "Manchester", "ADM0CAP": 0.0, "CAPIN": null, "WORLDCITY": 0.0, "MEGACITY": 1, "SOV0NAME": "United Kingdom", "SOV_A3": "GBR", "ADM0NAME": "United Kingdom", "ADM0_A3": "GBR", "ADM1NAME": "Manchester", "ISO_A2": "GB", "NOTE": null, "LATITUDE": 53.500415261900002, "LONGITUDE": -2.2479871026599998, "CHANGED": 0.0, "NAMEDIFF": 0, "DIFFNOTE": null, "POP_MAX": 2230000, "POP_MIN": 395515, "POP_OTHER": 142301, "RANK_MAX": 12, "RANK_MIN": 10, "GEONAMEID": 2643123.0, "MEGANAME": "Manchester", "LS_NAME": "Manchester2", "LS_MATCH": 1, "CHECKME": 0, "MAX_POP10": 2583902.0, "MAX_POP20": 2583902.0, "MAX_POP50": 0.0, "MAX_POP300": 0.0, "MAX_POP310": 0.0, "MAX_NATSCA": 20.0, "MIN_AREAKM": 1052.0, "MAX_AREAKM": 1052.0, "MIN_AREAMI": 406.0, "MAX_AREAMI": 406.0, "MIN_PERKM": 763.0, "MAX_PERKM": 763.0, "MIN_PERMI": 474.0, "MAX_PERMI": 474.0, "MIN_BBXMIN": -2.6, "MAX_BBXMIN": -2.6, "MIN_BBXMAX": -2.00833333, "MAX_BBXMAX": -2.00833333, "MIN_BBYMIN": 53.28333333, "MAX_BBYMIN": 53.28333333, "MIN_BBYMAX": 53.80833333, "MAX_BBYMAX": 53.80833333, "MEAN_BBXC": -2.29460095, "MEAN_BBYC": 53.51823851, "COMPARE": 0, "GN_ASCII": "Manchester", "FEATURE_CL": "P", "FEATURE_CO": "PPL", "ADMIN1_COD": 0.0, "GN_POP": 395515.0, "ELEVATION": 0.0, "GTOPO30": 60.0, "TIMEZONE": "Europe\/London", "GEONAMESNO": "Geonames ascii name + lat.d + long.d matching.", "UN_FID": 520, "UN_ADM0": "United Kingdom", "UN_LAT": 53.47, "UN_LONG": -2.26, "POP1950": 2422.0, "POP1955": 2425.0, "POP1960": 2427.0, "POP1965": 2413.0, "POP1970": 2396.0, "POP1975": 2370.0, "POP1980": 2343.0, "POP1985": 2313.0, "POP1990": 2282.0, "POP1995": 2262.0, "POP2000": 2243.0, "POP2005": 2230.0, "POP2010": 2230.0, "POP2015": 2235.0, "POP2020": 2246.0, "POP2025": 2258.0, "POP2050": 2267.0, "CITYALT": null, "min_zoom": 5.0, "wikidataid": "Q18125", "wof_id": 101750525, "CAPALT": 0, "name_en": "Manchester", "name_de": "Manchester", "name_es": "Mánchester", "name_fr": "Manchester", "name_pt": "Manchester", "name_ru": "Манчестер", "name_zh": "曼彻斯特", "label": null, "name_ar": "مانشستر", "name_bn": "ম্যানচেস্টার", "name_el": "Μάντσεστερ", "name_hi": "मैन्चेस्टर", "name_hu": "Manchester", "name_id": "Manchester", "name_it": "Manchester", "name_ja": "マンチェスター", "name_ko": "맨체스터", "name_nl": "Manchester", "name_pl": "Manchester", "name_sv": "Manchester", "name_tr": "Manchester", "name_vi": "Manchester", "wdid_score": 4, "ne_id": 1159149119 }, "geometry": { "type": "Point", "coordinates": [ -2.249932961273487, 53.502361120562284 ] } },
{ "type": "Feature", "properties": { "SCALERANK": 4, "NATSCALE": 50, "LABELRANK": 5, "FEATURECLA": "Populated place", "NAME": "Birmingham", "NAMEPAR": null, "NAMEALT": null, "DIFFASCII": 0, "NAMEASCII": "Birmingham", "ADM0CAP": 0.0, "CAPIN": null, "WORLDCITY": 0.0, "MEGACITY": 1, "SOV0NAME": "United Kingdom", "SOV_A3": "GBR", "ADM0NAME": "United Kingdom", "ADM0_A3": "GBR", "ADM1NAME": "West Midlands", "ISO_A2": "GB", "NOTE": null, "LATITUDE": 52.474973977799998, "LONGITUDE": -1.9199967869000001, "CHANGED": 0.0, "NAMEDIFF": 0, "DIFFNOTE": null, "POP_MAX": 2285000, "POP_MIN": 984333, "POP_OTHER": 631279, "RANK_MAX": 12, "RANK_MIN": 11, "GEONAMEID": 2655603.0, "MEGANAME": "Birmingham", "LS_NAME": "Birmingham2", "LS_MATCH": 1, "CHECKME": 0, "MAX_POP10": 2331021.0, "MAX_POP20": 2331021.0, "MAX_POP50": 2331630.0, "MAX_POP300": 0.0, "MAX_POP310": 0.0, "MAX_NATSCA": 50.0, "MIN_AREAKM": 838.0, "MAX_AREAKM": 842.0, "MIN_AREAMI": 324.0, "MAX_AREAMI": 325.0, "MIN_PERKM": 433.0, "MAX_PERKM": 438.0, "MIN_PERMI": 269.0, "MAX_PERMI": 272.0, "MIN_BBXMIN": -2.21666667, "MAX_BBXMIN": -2.21666667, "MIN_BBXMAX": -1.69877789, "MAX_BBXMAX": -1.68333333, "MIN_BBYMIN": 52.35833333, "MAX_BBYMIN": 52.35833333, "MIN_BBYMAX": 52.73333333, "MAX_BBYMAX": 52.73333333, "MEAN_BBXC": -1.96456479, "MEAN_BBYC": 52.526388676700002, "COMPARE": 0, "GN_ASCII": "Birmingham", "FEATURE_CL": "P", "FEATURE_CO": "PPL", "ADMIN1_COD": 0.0, "GN_POP": 984333.0, "ELEVATION": 0.0, "GTOPO30": 140.0, "TIMEZONE": "Europe\/London", "GEONAMESNO": "Geonames ascii name + lat.d + long.d matching.", "UN_FID": 516, "UN_ADM0": "United Kingdom", "UN_LAT": 52.49, "UN_LONG": -1.86, "POP1950": 2229.0, "POP1955": 2283.0, "POP1960": 2338.0, "POP1965": 2357.0, "POP1970": 2370.0, "POP1975": 2365.0, "POP1980": 2357.0, "POP1985": 2330.0, "POP1990": 2301.0, "POP1995": 2291.0, "POP2000": 2285.0, "POP2005": 2283.0, "POP2010": 2285.0, "POP2015": 2291.0, "POP2020": 2303.0, "POP2025": 2315.0, "POP2050": 2323.0, "CITYALT": null, "min_zoom": 5.0, "wikidataid": "Q2256", "wof_id": 1141909171, "CAPALT": 0, "name_en": "Birmingham", "name_de": "Birmingham", "name_es": "Birmingham", "name_fr": "Birmingham", "name_pt": "Birmingham", "name_ru": "Бирмингем", "name_zh": "伯明翰", "label": null, "name_ar": "برمينغهام", "name_bn": "বার্মিংহাম", "name_el": "Μπέρμιγχαμ", "name_hi": "बर्मिंघम", "name_hu": "Birmingham", "name_id": "Birmingham", "name_it": "Birmingham", "name_ja": "バーミンガム", "name_ko": "버밍엄", "name_nl": "Birmingham", "name_pl": "Birmingham", "name_sv": "Birmingham", "name_tr": "Birmingham", "name_vi": "Birmingham", "wdid_score": 4, "ne_id": 1159149367 }, "geometry": { "type": "Point", "coordinates": [ -1.921942645517049, 52.476919836378443 ] } },
{ "type": "Feature", "properties": { "SCALERANK": 4, "NATSCALE": 50, "LABELRANK": 5, "FEATURECLA": "Admin-0 region capital", "NAME": "Belfast", "NAMEPAR": null, "NAMEALT": null, "DIFFASCII": 0, "NAMEASCII": "Belfast", "ADM0CAP": 0.0, "CAPIN": null, "WORLDCITY": 0.0, "MEGACITY": 0, "SOV0NAME": "United Kingdom", "SOV_A3": "GBR", "ADM0NAME": "United Kingdom", "ADM0_A3": "GBR", "ADM1NAME": "Belfast", "ISO_A2": "GB", "NOTE": null, "LATITUDE": 54.600012226499999, "LONGITUDE": -5.9600344252699999, "CHANGED": 0.0, "NAMEDIFF": 0, "DIFFNOTE": null, "POP_MAX": 450406, "POP_MIN": 274770, "POP_OTHER": 418064, "RANK_MAX": 10, "RANK_MIN": 10, "GEONAMEID": 2655984.0, "MEGANAME": null, "LS_NAME": "Belfast", "LS_MATCH": 1, "CHECKME": 0, "MAX_POP10": 450406.0, "MAX_POP20": 450406.0, "MAX_POP50": 450406.0, "MAX_POP300": 0.0, "MAX_POP310": 0.0, "MAX_NATSCA": 50.0, "MIN_AREAKM": 192.0, "MAX_AREAKM": 192.0, "MIN_AREAMI": 74.0, "MAX_AREAMI": 74.0, "MIN_PERKM": 204.0, "MAX_PERKM": 204.0, "MIN_PERMI": 127.0, "MAX_PERMI": 127.0, "MIN_BBXMIN": -6.125, "MAX_BBXMIN": -6.125, "MIN_BBXMAX": -5.75833333, "MAX_BBXMAX": -5.75833333, "MIN_BBYMIN": 54.45833333, "MAX_BBYMIN": 54.45833333, "MIN_BBYMAX": 54.70833333, "MAX_BBYMAX": 54.70833333, "MEAN_BBXC": -5.94875541, "MEAN_BBYC": 54.59312771, "COMPARE": 0, "GN_ASCII": "Belfast", "FEATURE_CL": "P", "FEATURE_CO": "PPLA", "ADMIN1_COD": 0.0, "GN_POP": 274770.0, "ELEVATION": 0.0, "GTOPO30": 9.0, "TIMEZONE": "Europe\/London", "GEONAMESNO": "GeoNames match general.", "UN_FID": 0, "UN_ADM0": null, "UN_LAT": 0.0, "UN_LONG": 0.0, "POP1950": 0.0, "POP1955": 0.0, "POP1960": 0.0, "POP1965": 0.0, "POP1970": 0.0, "POP1975": 0.0, "POP1980": 0.0, "POP1985": 0.0, "POP1990": 0.0, "POP1995": 0.0, "POP2000": 0.0, "POP2005": 0.0, "POP2010": 0.0, "POP2015": 0.0, "POP2020": 0.0, "POP2025": 0.0, "POP2050": 0.0, "CITYALT": null, "min_zoom": 5.0, "wikidataid": "Q10686", "wof_id": 101751931, "CAPALT": 0, "name_en": "Belfast", "name_de": "Belfast", "name_es": "Belfast", "name_fr": "Belfast", "name_pt": "Belfast", "name_ru": "Белфаст", "name_zh": "贝尔法斯特", "label": null, "name_ar": "بلفاست", "name_bn": "বেলফাস্ট", "name_el": "Μπέλφαστ", "name_hi": "बेलफ़ास्ट", "name_hu": "Belfast", "name_id": "Belfast", "name_it": "Belfast", "name_ja": "ベルファスト", "name_ko": "벨파스트", "name_nl": "Belfast", "name_pl": "Belfast", "name_sv": "Belfast", "name_tr": "Belfast", "name_vi": "Belfast", "wdid_score": 4, "ne_id": 1159149369 }, "geometry": { "type": "Point", "coordinates": [ -5.960034425266599, 54.60001222647179 ] } },
{ "type": "Feature", "properties": { "SCALERANK": 3, "NATSCALE": 110, "LABELRANK": 5, "FEATURECLA": "Populated place", "NAME": "Glasgow", "NAMEPAR": null, "NAMEALT": null, "DIFFASCII": 0, "NAMEASCII": "Glasgow", "ADM0CAP": 0.0, "CAPIN": null, "WORLDCITY": 0.0, "MEGACITY": 1, "SOV0NAME": "United Kingdom", "SOV_A3": "GBR", "ADM0NAME": "United Kingdom", "ADM0_A3": "GBR", "ADM1NAME": "Glasgow", "ISO_A2": "GB", "NOTE": null, "LATITUDE": 55.874404723200001, "LONGITUDE": -4.2507072361300002, "CHANGED": 0.0, "NAMEDIFF": 0, "DIFFNOTE": null, "POP_MAX": 1160000, "POP_MIN": 610268, "POP_OTHER": 3240, "RANK_MAX": 12, "RANK_MIN": 11, "GEONAMEID": 2648579.0, "MEGANAME": "Glasgow", "LS_NAME": "Glasgow2", "LS_MATCH": 1, "CHECKME": 2, "MAX_POP10": 1216706.0, "MAX_POP20": 1233551.0, "MAX_POP50": 1233551.0, "MAX_POP300": 1233551.0, "MAX_POP310": 0.0, "MAX_NATSCA": 100.0, "MIN_AREAKM": 468.0, "MAX_AREAKM": 483.0, "MIN_AREAMI": 181.0, "MAX_AREAMI": 187.0, "MIN_PERKM": 377.0, "MAX_PERKM": 408.0, "MIN_PERMI": 234.0, "MAX_PERMI": 254.0, "MIN_BBXMIN": -4.55833333, "MAX_BBXMIN": -4.51066333, "MIN_BBXMAX": -3.85833333, "MAX_BBXMAX": -3.85833333, "MIN_BBYMIN": 55.73333333, "MAX_BBYMIN": 55.73333333, "MIN_BBYMAX": 55.95833333, "MAX_BBYMAX": 55.95833333, "MEAN_BBXC": -4.2251837974999997, "MEAN_BBYC": 55.843904424999998, "COMPARE": 0, "GN_ASCII": "Glasgow", "FEATURE_CL": "P", "FEATURE_CO": "PPL", "ADMIN1_COD": 0.0, "GN_POP": 610268.0, "ELEVATION": 0.0, "GTOPO30": 67.0, "TIMEZONE": "Europe\/London", "GEONAMESNO": "Geonames ascii name + lat.d + long.d matching.", "UN_FID": 517, "UN_ADM0": "United Kingdom", "UN_LAT": 55.86, "UN_LONG": -4.26, "POP1950": 1755.0, "POP1955": 1777.0, "POP1960": 1798.0, "POP1965": 1770.0, "POP1970": 1734.0, "POP1975": 1601.0, "POP1980": 1461.0, "POP1985": 1334.0, "POP1990": 1217.0, "POP1995": 1186.0, "POP2000": 1171.0, "POP2005": 1160.0, "POP2010": 1160.0, "POP2015": 1164.0, "POP2020": 1175.0, "POP2025": 1187.0, "POP2050": 1197.0, "CITYALT": null, "min_zoom": 4.0, "wikidataid": "Q4093", "wof_id": 101750621, "CAPALT": 0, "name_en": "Glasgow", "name_de": "Glasgow", "name_es": "Glasgow", "name_fr": "Glasgow", "name_pt": "Glasgow", "name_ru": "Глазго", "name_zh": "格拉斯哥", "label": null, "name_ar": "غلاسكو", "name_bn": "গ্লাসগো", "name_el": "Γλασκώβη", "name_hi": "ग्लासगो", "name_hu": "Glasgow", "name_id": "Glasgow", "name_it": "Glasgow", "name_ja": "グラスゴー", "name_ko": "글래스고", "name_nl": "Glasgow", "name_pl": "Glasgow", "name_sv": "Glasgow", "name_tr": "Glasgow", "name_vi": "Glasgow", "wdid_score": 4, "ne_id": 1159150591 }, "geometry": { "type": "Point", "coordinates": [ -4.252653094744971, 55.876350581834743 ] } },
{ "type": "Feature", "properties": { "SCALERANK": 0, "NATSCALE": 600, "LABELRANK": 5, "FEATURECLA": "Admin-0 capital", "NAME": "London", "NAMEPAR": null, "NAMEALT": null, "DIFFASCII": 0, "NAMEASCII": "London", "ADM0CAP": 1.0, "CAPIN": null, "WORLDCITY": 1.0, "MEGACITY": 1, "SOV0NAME": "United Kingdom", "SOV_A3": "GBR", "ADM0NAME": "United Kingdom", "ADM0_A3": "GBR", "ADM1NAME": "Westminster", "ISO_A2": "GB", "NOTE": null, "LATITUDE": 51.499994729699999, "LONGITUDE": -0.11672184386, "CHANGED": 0.0, "NAMEDIFF": 0, "DIFFNOTE": null, "POP_MAX": 8567000, "POP_MIN": 7421209, "POP_OTHER": 326670, "RANK_MAX": 13, "RANK_MIN": 13, "GEONAMEID": 2643743.0, "MEGANAME": "London", "LS_NAME": "London2", "LS_MATCH": 1, "CHECKME": 5, "MAX_POP10": 7721282.0, "MAX_POP20": 8370578.0, "MAX_POP50": 10011551.0, "MAX_POP300": 10011551.0, "MAX_POP310": 10011551.0, "MAX_NATSCA": 300.0, "MIN_AREAKM": 1914.0, "MAX_AREAKM": 3198.0, "MIN_AREAMI": 739.0, "MAX_AREAMI": 1235.0, "MIN_PERKM": 994.0, "MAX_PERKM": 2440.0, "MIN_PERMI": 618.0, "MAX_PERMI": 1516.0, "MIN_BBXMIN": -1.09166667, "MAX_BBXMIN": -0.54686621, "MIN_BBXMAX": 0.30710813, "MAX_BBXMAX": 0.81666667, "MIN_BBYMIN": 51.13333333, "MAX_BBYMIN": 51.20833333, "MIN_BBYMAX": 51.825, "MAX_BBYMAX": 51.825, "MEAN_BBXC": -0.169651288, "MEAN_BBYC": 51.48962434, "COMPARE": 0, "GN_ASCII": "London", "FEATURE_CL": "P", "FEATURE_CO": "PPLC", "ADMIN1_COD": 0.0, "GN_POP": 7421209.0, "ELEVATION": 0.0, "GTOPO30": 21.0, "TIMEZONE": "Europe\/London", "GEONAMESNO": "GeoNames match general.", "UN_FID": 519, "UN_ADM0": "United Kingdom", "UN_LAT": 51.48, "UN_LONG": -0.17, "POP1950": 8361.0, "POP1955": 8278.0, "POP1960": 8196.0, "POP1965": 7869.0, "POP1970": 7509.0, "POP1975": 7546.0, "POP1980": 7660.0, "POP1985": 7667.0, "POP1990": 7654.0, "POP1995": 7908.0, "POP2000": 8225.0, "POP2005": 8505.0, "POP2010": 8567.0, "POP2015": 8607.0, "POP2020": 8618.0, "POP2025": 8618.0, "POP2050": 8618.0, "CITYALT": null, "min_zoom": 1.7, "wikidataid": "Q84", "wof_id": 101750367, "CAPALT": 0, "name_en": "London", "name_de": "London", "name_es": "Londres", "name_fr": "Londres", "name_pt": "Londres", "name_ru": "Лондон", "name_zh": "倫敦", "label": null, "name_ar": "لندن", "name_bn": "লন্ডন", "name_el": "Λονδίνο", "name_hi": "लंदन", "name_hu": "London", "name_id": "London", "name_it": "Londra", "name_ja": "ロンドン", "name_ko": "런던", "name_nl": "Londen", "name_pl": "Londyn", "name_sv": "London", "name_tr": "Londra", "name_vi": "Luân Đôn", "wdid_score": 4, "ne_id": 1159151577 }, "geometry": { "type": "Point", "coordinates": [ -0.118667702475932, 51.5019405883275 ] } }
]
}
